[{"state": "Alaska", "city": "Madison", "address": "301 Skyview Annex", "zipcode": "05090", "bedrooms": "3", "bathroom": "Yes", "wifi": "No", "kitchen": "No"}, {"state": "Arkansas", "city": "McHenry", "address": "575 San Bruno Park", "zipcode": "21803", "bedrooms": "4", "bathroom": "No", "wifi": "No", "kitchen": "Yes"}, {"state": "Michigan", "city": "Lawrenceville", "address": "102 Commer Place", "zipcode": "87800", "bedrooms": "3", "bathroom": "Yes", "wifi": "No", "kitchen": "Yes"}, {"state": "Vermont", "city": "Mason City", "address": "1341 Ggp Access Road Circle", "zipcode": "37338", "bedrooms": "1", "bathroom": "No", "wifi": "No", "kitchen": "No"}, {"state": "Kentucky", "city": "Pine Bluff", "address": "232 Arthur Green", "zipcode": "96118", "bedrooms": "3", "bathroom": "Yes", "wifi": "No", "kitchen": "No"}, {"state": "New Mexico", "city": "Dodge City", "address": "636 Rice Alley", "zipcode": "87518", "bedrooms": "3", "bathroom": "No", "wifi": "Yes", "kitchen": "Yes"}, {"state": "Minnesota", "city": "Gurnee", "address": "1391 Ramsel Place", "zipcode": "14803", "bedrooms": "2", "bathroom": "Yes", "wifi": "No", "kitchen": "Yes"}, {"state": "Wyoming", "city": "Pocatello", "address": "66 West Broadway Trail", "zipcode": "94352", "bedrooms": "1", "bathroom": "Yes", "wifi": "No", "kitchen": "Yes"}, {"state": "Missouri", "city": "Kingsville", "address": "142 Menoher Trail", "zipcode": "66085", "bedrooms": "3", "bathroom": "Yes", "wifi": "Yes", "kitchen": "Yes"}, {"state": "Louisiana", "city": "Citrus Heights", "address": "479 Belden Street", "zipcode": "32932", "bedrooms": "1", "bathroom": "No", "wifi": "No", "kitchen": "No"}, {"state": "North Carolina", "city": "Hampton", "address": "88 Marin Cove", "zipcode": "61270", "bedrooms": "1", "bathroom": "No", "wifi": "No", "kitchen": "No"}, {"state": "Colorado", "city": "Eagle Mountain", "address": "369 Stoneyford Trail", "zipcode": "30429", "bedrooms": "3", "bathroom": "No", "wifi": "No", "kitchen": "No"}, {"state": "Minnesota", "city": "Modesto", "address": "1086 Garnett Landing", "zipcode": "49148", "bedrooms": "1", "bathroom": "Yes", "wifi": "No", "kitchen": "Yes"}, {"state": "New Mexico", "city": "Denton", "address": "954 Tenny Extension", "zipcode": "39898", "bedrooms": "3", "bathroom": "No", "wifi": "No", "kitchen": "Yes"}, {"state": "New Mexico", "city": "Grand Prairie", "address": "1188 Halibut Loop", "zipcode": "01874", "bedrooms": "2", "bathroom": "Yes", "wifi": "Yes", "kitchen": "Yes"}, {"state": "Maryland", "city": "Jersey City", "address": "926 Clay Creek", "zipcode": "08278", "bedrooms": "2", "bathroom": "No", "wifi": "Yes", "kitchen": "Yes"}, {"state": "West Virginia", "city": "St. Petersburg", "address": "1170 Wills Mall", "zipcode": "68726", "bedrooms": "3", "bathroom": "No", "wifi": "Yes", "kitchen": "No"}, {"state": "New York", "city": "Atlanta", "address": "790 Gellert Bridge", "zipcode": "67121", "bedrooms": "3", "bathroom": "Yes", "wifi": "No", "kitchen": "Yes"}, {"state": "Wisconsin", "city": "Oregon", "address": "474 Ord Gardens", "zipcode": "27867", "bedrooms": "4", "bathroom": "Yes", "wifi": "Yes", "kitchen": "No"}, {"state": "Tennessee", "city": "Peachtree City", "address": "990 Bartol Garden", "zipcode": "12286", "bedrooms": "1", "bathroom": "Yes", "wifi": "Yes", "kitchen": "No"}, {"state": "Idaho", "city": "Des Moines", "address": "1212 Decatur Crescent", "zipcode": "69347", "bedrooms": "4", "bathroom": "No", "wifi": "No", "kitchen": "No"}, {"state": "Georgia", "city": "Federal Way", "address": "479 South Hills", "zipcode": "12610", "bedrooms": "3", "bathroom": "Yes", "wifi": "Yes", "kitchen": "Yes"}, {"state": "Nevada", "city": "Harlingen", "address": "1105 Gibbon Parkway", "zipcode": "20934", "bedrooms": "2", "bathroom": "Yes", "wifi": "Yes", "kitchen": "Yes"}, {"state": "Iowa", "city": "Ashland", "address": "63 Dove Grove", "zipcode": "84481", "bedrooms": "1", "bathroom": "Yes", "wifi": "No", "kitchen": "Yes"}, {"state": "North Carolina", "city": "Chanhassen", "address": "822 Middle West Highway", "zipcode": "48197", "bedrooms": "2", "bathroom": "No", "wifi": "Yes", "kitchen": "No"}, {"state": "Ohio", "city": "Del City", "address": "1156 Loraine Plaza", "zipcode": "84137", "bedrooms": "2", "bathroom": "Yes", "wifi": "Yes", "kitchen": "Yes"}, {"state": "Colorado", "city": "Methuen", "address": "87 Burke Hills", "zipcode": "69338", "bedrooms": "1", "bathroom": "No", "wifi": "Yes", "kitchen": "Yes"}, {"state": "Montana", "city": "Ceres", "address": "1244 Dewitt Run", "zipcode": "13278", "bedrooms": "1", "bathroom": "No", "wifi": "Yes", "kitchen": "Yes"}, {"state": "Texas", "city": "Scarsdale", "address": "178 Thomas Manor", "zipcode": "72853", "bedrooms": "2", "bathroom": "No", "wifi": "Yes", "kitchen": "No"}, {"state": "Pennsylvania", "city": "Desert Hot Springs", "address": "872 Santa Ana Lake", "zipcode": "34873", "bedrooms": "3", "bathroom": "No", "wifi": "Yes", "kitchen": "Yes"}, {"state": "Arizona", "city": "Chesterfield", "address": "434 Zampa Gardens", "zipcode": "51687", "bedrooms": "4", "bathroom": "No", "wifi": "No", "kitchen": "Yes"}, {"state": "Minnesota", "city": "Keizer", "address": "530 Royal Pass", "zipcode": "04215", "bedrooms": "1", "bathroom": "No", "wifi": "No", "kitchen": "No"}, {"state": "Idaho", "city": "Rock Island", "address": "1242 Myrtle Canyon", "zipcode": "70814", "bedrooms": "1", "bathroom": "Yes", "wifi": "Yes", "kitchen": "Yes"}, {"state": "North Dakota", "city": "Clinton", "address": "810 Bosworth Pass", "zipcode": "63500", "bedrooms": "1", "bathroom": "No", "wifi": "Yes", "kitchen": "Yes"}, {"state": "Arizona", "city": "Layton", "address": "676 Palmetto Bridge", "zipcode": "80112", "bedrooms": "4", "bathroom": "No", "wifi": "Yes", "kitchen": "Yes"}, {"state": "Idaho", "city": "Shakopee", "address": "295 Dwight Shore", "zipcode": "70752", "bedrooms": "4", "bathroom": "Yes", "wifi": "Yes", "kitchen": "Yes"}, {"state": "New Hampshire", "city": "Alabaster", "address": "1160 Standish Lodge", "zipcode": "07893", "bedrooms": "1", "bathroom": "Yes", "wifi": "No", "kitchen": "Yes"}, {"state": "Hawaii", "city": "Tupelo", "address": "934 Loma Vista Route", "zipcode": "62171", "bedrooms": "1", "bathroom": "No", "wifi": "Yes", "kitchen": "Yes"}, {"state": "Texas", "city": "Cedar Park", "address": "726 Stockton Road", "zipcode": "06698", "bedrooms": "2", "bathroom": "Yes", "wifi": "No", "kitchen": "Yes"}, {"state": "Louisiana", "city": "Rowlett", "address": "195 Kate Creek", "zipcode": "03600", "bedrooms": "4", "bathroom": "No", "wifi": "Yes", "kitchen": "No"}, {"state": "Oklahoma", "city": "University Park", "address": "305 San Andreas Rapids", "zipcode": "27876", "bedrooms": "1", "bathroom": "Yes", "wifi": "Yes", "kitchen": "No"}, {"state": "Montana", "city": "Norwich", "address": "656 Jones Spur", "zipcode": "45302", "bedrooms": "3", "bathroom": "No", "wifi": "No", "kitchen": "No"}, {"state": "Utah", "city": "Tallahassee", "address": "726 Pino Highway", "zipcode": "58174", "bedrooms": "2", "bathroom": "Yes", "wifi": "No", "kitchen": "No"}, {"state": "Florida", "city": "Eagle Pass", "address": "55 Rawles Bayou", "zipcode": "28634", "bedrooms": "4", "bathroom": "Yes", "wifi": "No", "kitchen": "No"}, {"state": "Nebraska", "city": "Paducah", "address": "235 Rodriguez Place", "zipcode": "95167", "bedrooms": "3", "bathroom": "Yes", "wifi": "No", "kitchen": "Yes"}, {"state": "West Virginia", "city": "Plano", "address": "594 El Mirasol Row", "zipcode": "67481", "bedrooms": "4", "bathroom": "Yes", "wifi": "No", "kitchen": "No"}, {"state": "Maryland", "city": "Duluth", "address": "1310 Gibb Boulevard", "zipcode": "31050", "bedrooms": "2", "bathroom": "No", "wifi": "Yes", "kitchen": "Yes"}, {"state": "Connecticut", "city": "Bakersfield", "address": "1040 Armory Manor", "zipcode": "91863", "bedrooms": "1", "bathroom": "Yes", "wifi": "Yes", "kitchen": "Yes"}, {"state": "Louisiana", "city": "Monroeville", "address": "574 Evelyn Shore", "zipcode": "76540", "bedrooms": "4", "bathroom": "Yes", "wifi": "No", "kitchen": "No"}, {"state": "Michigan", "city": "Deerfield Beach", "address": "119 Lakewood Road", "zipcode": "81000", "bedrooms": "3", "bathroom": "No", "wifi": "Yes", "kitchen": "No"}, {"state": "South Dakota", "city": "Staunton", "address": "679 Fifth Bayou", "zipcode": "87812", "bedrooms": "2", "bathroom": "Yes", "wifi": "No", "kitchen": "No"}, {"state": "New York", "city": "Spokane Valley", "address": "1015 Sturgeon Expressway", "zipcode": "57433", "bedrooms": "2", "bathroom": "Yes", "wifi": "No", "kitchen": "Yes"}, {"state": "South Carolina", "city": "Martinez", "address": "694 Rotteck Cove", "zipcode": "83130", "bedrooms": "3", "bathroom": "Yes", "wifi": "No", "kitchen": "Yes"}, {"state": "Rhode Island", "city": "Blue Island", "address": "225 Blythdale Drive", "zipcode": "25221", "bedrooms": "1", "bathroom": "Yes", "wifi": "Yes", "kitchen": "No"}, {"state": "California", "city": "Hackensack", "address": "548 Midway Walk", "zipcode": "18714", "bedrooms": "1", "bathroom": "No", "wifi": "No", "kitchen": "No"}, {"state": "Wyoming", "city": "Frisco", "address": "488 Robert Kirk Grove", "zipcode": "53737", "bedrooms": "4", "bathroom": "Yes", "wifi": "No", "kitchen": "No"}, {"state": "Alabama", "city": "Madison", "address": "603 Battery Dynamite Mews", "zipcode": "64081", "bedrooms": "3", "bathroom": "Yes", "wifi": "No", "kitchen": "No"}, {"state": "North Carolina", "city": "Eastlake", "address": "475 La Ferrera Circle", "zipcode": "39545", "bedrooms": "1", "bathroom": "No", "wifi": "Yes", "kitchen": "No"}, {"state": "Utah", "city": "Arnold", "address": "804 Worden Freeway", "zipcode": "22224", "bedrooms": "4", "bathroom": "No", "wifi": "No", "kitchen": "Yes"}, {"state": "Colorado", "city": "Santa Fe", "address": "170 Bepler Estate", "zipcode": "48745", "bedrooms": "4", "bathroom": "No", "wifi": "No", "kitchen": "No"}, {"state": "New Jersey", "city": "Eastpointe", "address": "1071 Cunningham Grove", "zipcode": "28961", "bedrooms": "2", "bathroom": "No", "wifi": "Yes", "kitchen": "No"}, {"state": "Kansas", "city": "Anchorage", "address": "926 Emery Manor", "zipcode": "43541", "bedrooms": "1", "bathroom": "No", "wifi": "No", "kitchen": "No"}, {"state": "Tennessee", "city": "Natchez", "address": "950 Battery East Point", "zipcode": "92645", "bedrooms": "1", "bathroom": "Yes", "wifi": "No", "kitchen": "No"}, {"state": "Iowa", "city": "South Milwaukee", "address": "358 Virgil Extension", "zipcode": "06967", "bedrooms": "1", "bathroom": "No", "wifi": "No", "kitchen": "Yes"}, {"state": "Missouri", "city": "Wheeling", "address": "1079 Delaware Arcade", "zipcode": "47380", "bedrooms": "1", "bathroom": "No", "wifi": "No", "kitchen": "Yes"}, {"state": "Maine", "city": "Plant City", "address": "732 Capitol Center", "zipcode": "40280", "bedrooms": "1", "bathroom": "No", "wifi": "No", "kitchen": "Yes"}, {"state": "Delaware", "city": "Ellensburg", "address": "924 Zoo Expressway", "zipcode": "27630", "bedrooms": "2", "bathroom": "No", "wifi": "Yes", "kitchen": "Yes"}, {"state": "Arkansas", "city": "San Dimas", "address": "942 Valletta Green", "zipcode": "82996", "bedrooms": "1", "bathroom": "Yes", "wifi": "Yes", "kitchen": "No"}, {"state": "West Virginia", "city": "Los Angeles", "address": "703 Halibut Garden", "zipcode": "28371", "bedrooms": "2", "bathroom": "Yes", "wifi": "Yes", "kitchen": "Yes"}, {"state": "West Virginia", "city": "Oregon City", "address": "319 San Jose Grove", "zipcode": "40436", "bedrooms": "2", "bathroom": "No", "wifi": "No", "kitchen": "Yes"}, {"state": "North Dakota", "city": "Sun Prairie", "address": "1237 Worden Junction", "zipcode": "21380", "bedrooms": "1", "bathroom": "Yes", "wifi": "Yes", "kitchen": "No"}, {"state": "Iowa", "city": "La Ca\u00f1ada Flintridge", "address": "589 Clinton Hills", "zipcode": "40152", "bedrooms": "3", "bathroom": "Yes", "wifi": "Yes", "kitchen": "Yes"}, {"state": "Alaska", "city": "La Mesa", "address": "1093 Boardman Point", "zipcode": "69828", "bedrooms": "2", "bathroom": "Yes", "wifi": "No", "kitchen": "No"}, {"state": "Wyoming", "city": "Homer Glen", "address": "179 Hotaling Trail", "zipcode": "49230", "bedrooms": "2", "bathroom": "No", "wifi": "Yes", "kitchen": "Yes"}, {"state": "New Hampshire", "city": "Avon", "address": "714 Vega Boulevard", "zipcode": "46171", "bedrooms": "2", "bathroom": "Yes", "wifi": "Yes", "kitchen": "Yes"}, {"state": "Minnesota", "city": "West Linn", "address": "577 Arkansas Arcade", "zipcode": "81698", "bedrooms": "1", "bathroom": "No", "wifi": "No", "kitchen": "Yes"}, {"state": "Illinois", "city": "Littleton", "address": "644 Indiana Ferry", "zipcode": "59861", "bedrooms": "2", "bathroom": "Yes", "wifi": "Yes", "kitchen": "Yes"}, {"state": "Montana", "city": "West Fargo", "address": "633 Leese Square", "zipcode": "13569", "bedrooms": "1", "bathroom": "Yes", "wifi": "Yes", "kitchen": "No"}, {"state": "Colorado", "city": "Woodridge", "address": "347 Merchant Mews", "zipcode": "98474", "bedrooms": "1", "bathroom": "Yes", "wifi": "Yes", "kitchen": "No"}, {"state": "Nevada", "city": "Allen Park", "address": "595 Van Keuren Circle", "zipcode": "42043", "bedrooms": "4", "bathroom": "Yes", "wifi": "No", "kitchen": "No"}, {"state": "Oregon", "city": "Hollywood", "address": "273 Mahan Street", "zipcode": "55456", "bedrooms": "3", "bathroom": "No", "wifi": "Yes", "kitchen": "No"}, {"state": "Michigan", "city": "Titusville", "address": "1394 Bliss Point", "zipcode": "90404", "bedrooms": "1", "bathroom": "Yes", "wifi": "Yes", "kitchen": "Yes"}, {"state": "Nevada", "city": "Webster Groves", "address": "201 Frederick Creek", "zipcode": "07385", "bedrooms": "2", "bathroom": "No", "wifi": "Yes", "kitchen": "No"}, {"state": "Texas", "city": "Golden", "address": "267 Mansfield Annex", "zipcode": "18053", "bedrooms": "3", "bathroom": "Yes", "wifi": "Yes", "kitchen": "No"}, {"state": "Idaho", "city": "Pascagoula", "address": "383 Leidesdorff Walk", "zipcode": "51456", "bedrooms": "4", "bathroom": "Yes", "wifi": "Yes", "kitchen": "No"}, {"state": "Kentucky", "city": "Myrtle Beach", "address": "564 Eugenia Terrace", "zipcode": "73450", "bedrooms": "2", "bathroom": "Yes", "wifi": "Yes", "kitchen": "Yes"}, {"state": "Mississippi", "city": "Concord", "address": "799 Clinton Canyon", "zipcode": "60858", "bedrooms": "3", "bathroom": "Yes", "wifi": "No", "kitchen": "No"}, {"state": "Indiana", "city": "Methuen", "address": "761 Allen Ranch", "zipcode": "98154", "bedrooms": "2", "bathroom": "No", "wifi": "No", "kitchen": "Yes"}, {"state": "Mississippi", "city": "New Iberia", "address": "615 Fenton Point", "zipcode": "17299", "bedrooms": "4", "bathroom": "Yes", "wifi": "No", "kitchen": "Yes"}, {"state": "South Dakota", "city": "College Station", "address": "1323 Aquavista Bend", "zipcode": "79086", "bedrooms": "4", "bathroom": "No", "wifi": "No", "kitchen": "Yes"}, {"state": "Kansas", "city": "Diamond Bar", "address": "1382 Del Vale Point", "zipcode": "16480", "bedrooms": "3", "bathroom": "Yes", "wifi": "Yes", "kitchen": "Yes"}, {"state": "Louisiana", "city": "Dubuque", "address": "1356 Acme Crossing", "zipcode": "60153", "bedrooms": "4", "bathroom": "No", "wifi": "No", "kitchen": "Yes"}, {"state": "Alabama", "city": "Watertown", "address": "772 Cotter Hills", "zipcode": "99360", "bedrooms": "3", "bathroom": "Yes", "wifi": "No", "kitchen": "No"}, {"state": "Oklahoma", "city": "Apopka", "address": "477 Harris Canyon", "zipcode": "69837", "bedrooms": "1", "bathroom": "Yes", "wifi": "Yes", "kitchen": "Yes"}, {"state": "Colorado", "city": "Kankakee", "address": "737 Recycle Pine", "zipcode": "55490", "bedrooms": "2", "bathroom": "No", "wifi": "Yes", "kitchen": "No"}, {"state": "Missouri", "city": "Lakewood", "address": "1284 Texas Manor", "zipcode": "57499", "bedrooms": "3", "bathroom": "Yes", "wifi": "No", "kitchen": "No"}, {"state": "Nevada", "city": "Windsor", "address": "752 Arleta Green", "zipcode": "32890", "bedrooms": "1", "bathroom": "Yes", "wifi": "Yes", "kitchen": "No"}, {"state": "Michigan", "city": "Westbrook", "address": "934 Veterans Landing", "zipcode": "92883", "bedrooms": "2", "bathroom": "No", "wifi": "Yes", "kitchen": "No"}, {"state": "Missouri", "city": "Norwood", "address": "252 Crisp Junction", "zipcode": "53326", "bedrooms": "3", "bathroom": "No", "wifi": "No", "kitchen": "No"}, {"state": "Ohio", "city": "Liberty", "address": "1030 Mississippi Row", "zipcode": "77930", "bedrooms": "3", "bathroom": "Yes", "wifi": "No", "kitchen": "Yes"}, {"state": "Nebraska", "city": "Rancho Cucamonga", "address": "414 Larch Trail", "zipcode": "88254", "bedrooms": "2", "bathroom": "No", "wifi": "No", "kitchen": "Yes"}, {"state": "New Mexico", "city": "Ocoee", "address": "315 Ezekiel Pine", "zipcode": "95032", "bedrooms": "2", "bathroom": "No", "wifi": "Yes", "kitchen": "Yes"}, {"state": "New Jersey", "city": "Orlando", "address": "1285 De Soto Manor", "zipcode": "17119", "bedrooms": "4", "bathroom": "No", "wifi": "Yes", "kitchen": "Yes"}, {"state": "Arizona", "city": "Dallas", "address": "116 Hallam Square", "zipcode": "49079", "bedrooms": "4", "bathroom": "No", "wifi": "Yes", "kitchen": "Yes"}, {"state": "West Virginia", "city": "Brookfield", "address": "797 Cardenas Road", "zipcode": "55185", "bedrooms": "3", "bathroom": "No", "wifi": "Yes", "kitchen": "Yes"}, {"state": "Illinois", "city": "Vallejo", "address": "23 San Rafael Run", "zipcode": "91842", "bedrooms": "3", "bathroom": "Yes", "wifi": "Yes", "kitchen": "No"}, {"state": "Pennsylvania", "city": "Faribault", "address": "348 Avenue F Avenue", "zipcode": "84865", "bedrooms": "4", "bathroom": "No", "wifi": "Yes", "kitchen": "No"}, {"state": "New Jersey", "city": "Atlantic City", "address": "1138 Harrison Canyon", "zipcode": "94085", "bedrooms": "1", "bathroom": "No", "wifi": "Yes", "kitchen": "Yes"}, {"state": "New Jersey", "city": "Culver City", "address": "1266 Lower Gardens", "zipcode": "29721", "bedrooms": "4", "bathroom": "Yes", "wifi": "No", "kitchen": "Yes"}, {"state": "Hawaii", "city": "Salina", "address": "234 Music Concourse Walk", "zipcode": "58229", "bedrooms": "3", "bathroom": "Yes", "wifi": "No", "kitchen": "Yes"}, {"state": "Rhode Island", "city": "Lynchburg", "address": "237 Henry Annex", "zipcode": "00031", "bedrooms": "3", "bathroom": "Yes", "wifi": "No", "kitchen": "Yes"}, {"state": "Kansas", "city": "Corvallis", "address": "1254 Farnsworth Place", "zipcode": "41968", "bedrooms": "2", "bathroom": "Yes", "wifi": "No", "kitchen": "Yes"}, {"state": "Idaho", "city": "Redondo Beach", "address": "216 Munich Bend", "zipcode": "13026", "bedrooms": "1", "bathroom": "Yes", "wifi": "No", "kitchen": "No"}, {"state": "Alaska", "city": "Grapevine", "address": "278 Naples Crescent", "zipcode": "53843", "bedrooms": "4", "bathroom": "No", "wifi": "No", "kitchen": "No"}, {"state": "West Virginia", "city": "Duncanville", "address": "1133 San Juan Expressway", "zipcode": "19093", "bedrooms": "2", "bathroom": "No", "wifi": "Yes", "kitchen": "Yes"}, {"state": "Virginia", "city": "Hannibal", "address": "434 Spreckels Lake Heights", "zipcode": "96685", "bedrooms": "3", "bathroom": "No", "wifi": "No", "kitchen": "No"}, {"state": "Kansas", "city": "South Bend", "address": "1092 Ross Station", "zipcode": "59790", "bedrooms": "3", "bathroom": "No", "wifi": "No", "kitchen": "Yes"}, {"state": "Arizona", "city": "Norwalk", "address": "307 Attridge Spur", "zipcode": "97485", "bedrooms": "1", "bathroom": "No", "wifi": "No", "kitchen": "Yes"}, {"state": "Tennessee", "city": "Pinole", "address": "1013 Sydney Circle", "zipcode": "35278", "bedrooms": "2", "bathroom": "Yes", "wifi": "No", "kitchen": "No"}, {"state": "New Mexico", "city": "Muskegon", "address": "817 Marcy Expressway", "zipcode": "32486", "bedrooms": "4", "bathroom": "No", "wifi": "No", "kitchen": "Yes"}, {"state": "West Virginia", "city": "Novato", "address": "1388 Striped Bass Run", "zipcode": "77267", "bedrooms": "4", "bathroom": "Yes", "wifi": "No", "kitchen": "No"}, {"state": "North Dakota", "city": "Shreveport", "address": "728 San Benito Crescent", "zipcode": "59617", "bedrooms": "1", "bathroom": "No", "wifi": "No", "kitchen": "No"}, {"state": "Georgia", "city": "Wildwood", "address": "1348 Panorama Gardens", "zipcode": "09366", "bedrooms": "2", "bathroom": "Yes", "wifi": "Yes", "kitchen": "Yes"}, {"state": "Rhode Island", "city": "Cudahy", "address": "169 Tubbs Shore", "zipcode": "88318", "bedrooms": "4", "bathroom": "No", "wifi": "Yes", "kitchen": "Yes"}, {"state": "Virginia", "city": "Glendale Heights", "address": "161 Worth Point", "zipcode": "47556", "bedrooms": "4", "bathroom": "No", "wifi": "No", "kitchen": "No"}, {"state": "South Carolina", "city": "Palm Bay", "address": "456 Shipley Station", "zipcode": "82591", "bedrooms": "2", "bathroom": "Yes", "wifi": "Yes", "kitchen": "Yes"}, {"state": "Nebraska", "city": "Fairfield", "address": "515 Perego Pike", "zipcode": "34303", "bedrooms": "3", "bathroom": "No", "wifi": "No", "kitchen": "Yes"}, {"state": "New Hampshire", "city": "Baton Rouge", "address": "1224 Brighton Plaza", "zipcode": "73924", "bedrooms": "1", "bathroom": "Yes", "wifi": "No", "kitchen": "Yes"}, {"state": "Alabama", "city": "Bergenfield", "address": "87 H Canyon", "zipcode": "21392", "bedrooms": "1", "bathroom": "Yes", "wifi": "No", "kitchen": "Yes"}, {"state": "Arizona", "city": "San Luis Obispo", "address": "397 Rhode Island Heights", "zipcode": "83347", "bedrooms": "4", "bathroom": "No", "wifi": "No", "kitchen": "No"}, {"state": "Alabama", "city": "Beckley", "address": "1292 Danton Pike", "zipcode": "05336", "bedrooms": "3", "bathroom": "No", "wifi": "No", "kitchen": "Yes"}, {"state": "Ohio", "city": "Cicero", "address": "1231 Ridge Expressway", "zipcode": "50750", "bedrooms": "2", "bathroom": "No", "wifi": "Yes", "kitchen": "Yes"}, {"state": "North Dakota", "city": "Summerville", "address": "957 Upland Lodge", "zipcode": "63903", "bedrooms": "3", "bathroom": "No", "wifi": "Yes", "kitchen": "No"}, {"state": "Texas", "city": "Sioux Falls", "address": "428 Towerside Place", "zipcode": "47084", "bedrooms": "1", "bathroom": "No", "wifi": "No", "kitchen": "No"}, {"state": "Louisiana", "city": "Wasco", "address": "966 Granada Expressway", "zipcode": "35194", "bedrooms": "1", "bathroom": "No", "wifi": "Yes", "kitchen": "No"}, {"state": "Maine", "city": "Farragut", "address": "741 Calgary Trail", "zipcode": "96744", "bedrooms": "1", "bathroom": "No", "wifi": "No", "kitchen": "No"}, {"state": "Maine", "city": "Mount Prospect", "address": "181 Watchman Trail", "zipcode": "69740", "bedrooms": "4", "bathroom": "Yes", "wifi": "No", "kitchen": "Yes"}, {"state": "Colorado", "city": "Ann Arbor", "address": "231 Lurmont Terrace", "zipcode": "06638", "bedrooms": "3", "bathroom": "No", "wifi": "Yes", "kitchen": "No"}, {"state": "Oregon", "city": "Lauderhill", "address": "519 Pinto Station", "zipcode": "19427", "bedrooms": "4", "bathroom": "Yes", "wifi": "No", "kitchen": "No"}, {"state": "Mississippi", "city": "Alliance", "address": "1061 Wheeler Turnpike", "zipcode": "27602", "bedrooms": "1", "bathroom": "No", "wifi": "Yes", "kitchen": "No"}, {"state": "Wisconsin", "city": "Iowa City", "address": "363 Bay Plaza", "zipcode": "17794", "bedrooms": "4", "bathroom": "No", "wifi": "Yes", "kitchen": "No"}, {"state": "Rhode Island", "city": "Opelika", "address": "698 Mirabel Court", "zipcode": "35400", "bedrooms": "1", "bathroom": "No", "wifi": "Yes", "kitchen": "No"}, {"state": "Nevada", "city": "Baldwin", "address": "300 Athens Pine", "zipcode": "85648", "bedrooms": "3", "bathroom": "No", "wifi": "No", "kitchen": "No"}, {"state": "Connecticut", "city": "Berkeley", "address": "989 Gateview 2 Gardens", "zipcode": "52870", "bedrooms": "3", "bathroom": "Yes", "wifi": "Yes", "kitchen": "No"}, {"state": "Iowa", "city": "Albuquerque", "address": "873 Opalo Path", "zipcode": "55129", "bedrooms": "2", "bathroom": "No", "wifi": "No", "kitchen": "Yes"}, {"state": "Wisconsin", "city": "Bartlesville", "address": "629 Van Buren Extension", "zipcode": "26587", "bedrooms": "4", "bathroom": "Yes", "wifi": "No", "kitchen": "No"}, {"state": "North Carolina", "city": "New Brighton", "address": "198 Farallones Drive", "zipcode": "16200", "bedrooms": "3", "bathroom": "Yes", "wifi": "Yes", "kitchen": "Yes"}, {"state": "Alaska", "city": "Puyallup", "address": "1158 Clipper Cove Gardens", "zipcode": "19425", "bedrooms": "1", "bathroom": "No", "wifi": "No", "kitchen": "Yes"}, {"state": "Indiana", "city": "Glen Cove", "address": "565 John Muir Shore", "zipcode": "21885", "bedrooms": "3", "bathroom": "No", "wifi": "No", "kitchen": "Yes"}, {"state": "New York", "city": "Ferndale", "address": "951 Hilton Arcade", "zipcode": "37688", "bedrooms": "3", "bathroom": "No", "wifi": "No", "kitchen": "Yes"}, {"state": "Kansas", "city": "Clarksdale", "address": "92 Stoneyford Freeway", "zipcode": "50479", "bedrooms": "2", "bathroom": "No", "wifi": "Yes", "kitchen": "Yes"}, {"state": "Kansas", "city": "Lake Elsinore", "address": "765 Rodriguez Pike", "zipcode": "42257", "bedrooms": "1", "bathroom": "No", "wifi": "Yes", "kitchen": "No"}, {"state": "Maine", "city": "Indio", "address": "672 Fanning Terrace", "zipcode": "05799", "bedrooms": "2", "bathroom": "No", "wifi": "No", "kitchen": "No"}, {"state": "South Carolina", "city": "Burlingame", "address": "90 Minerva Run", "zipcode": "20476", "bedrooms": "4", "bathroom": "Yes", "wifi": "Yes", "kitchen": "Yes"}, {"state": "Nevada", "city": "Plattsburgh", "address": "944 Fairfield Expressway", "zipcode": "84024", "bedrooms": "1", "bathroom": "Yes", "wifi": "No", "kitchen": "Yes"}, {"state": "Minnesota", "city": "Vernon Hills", "address": "369 Ohlone Loop", "zipcode": "40609", "bedrooms": "4", "bathroom": "No", "wifi": "Yes", "kitchen": "Yes"}, {"state": "Pennsylvania", "city": "Port Huron", "address": "277 Hagiwara Tea Garden Loop", "zipcode": "02864", "bedrooms": "2", "bathroom": "No", "wifi": "No", "kitchen": "No"}, {"state": "Idaho", "city": "Azusa", "address": "25 Romolo Avenue", "zipcode": "38852", "bedrooms": "3", "bathroom": "Yes", "wifi": "No", "kitchen": "Yes"}, {"state": "Maryland", "city": "Missoula", "address": "943 Mccormick Canyon", "zipcode": "37175", "bedrooms": "2", "bathroom": "No", "wifi": "No", "kitchen": "No"}, {"state": "Georgia", "city": "Ventura", "address": "53 Gordon Green", "zipcode": "91581", "bedrooms": "4", "bathroom": "No", "wifi": "Yes", "kitchen": "Yes"}, {"state": "Nevada", "city": "Delano", "address": "453 Bay Bend", "zipcode": "52456", "bedrooms": "1", "bathroom": "Yes", "wifi": "No", "kitchen": "No"}, {"state": "Connecticut", "city": "Durant", "address": "1155 Warren Lake", "zipcode": "49332", "bedrooms": "1", "bathroom": "No", "wifi": "Yes", "kitchen": "No"}, {"state": "North Dakota", "city": "Payson", "address": "110 Hicks Lake", "zipcode": "94190", "bedrooms": "3", "bathroom": "Yes", "wifi": "Yes", "kitchen": "No"}, {"state": "New Hampshire", "city": "Sugar Land", "address": "1324 Rockridge Mews", "zipcode": "71437", "bedrooms": "3", "bathroom": "No", "wifi": "No", "kitchen": "Yes"}, {"state": "North Carolina", "city": "Tulsa", "address": "919 Weldon Annex", "zipcode": "76982", "bedrooms": "1", "bathroom": "Yes", "wifi": "Yes", "kitchen": "Yes"}, {"state": "Utah", "city": "Lauderdale Lakes", "address": "1156 Carroll Bend", "zipcode": "18423", "bedrooms": "3", "bathroom": "Yes", "wifi": "Yes", "kitchen": "No"}, {"state": "West Virginia", "city": "Cuyahoga Falls", "address": "947 Hodges Garden", "zipcode": "78415", "bedrooms": "2", "bathroom": "No", "wifi": "No", "kitchen": "Yes"}, {"state": "Virginia", "city": "Kissimmee", "address": "675 Avenue B Annex", "zipcode": "92906", "bedrooms": "3", "bathroom": "No", "wifi": "Yes", "kitchen": "Yes"}, {"state": "North Dakota", "city": "Anaheim", "address": "294 California Grove", "zipcode": "27133", "bedrooms": "1", "bathroom": "Yes", "wifi": "No", "kitchen": "No"}, {"state": "Wisconsin", "city": "The Colony", "address": "1388 Ord Pass", "zipcode": "75607", "bedrooms": "4", "bathroom": "No", "wifi": "Yes", "kitchen": "Yes"}, {"state": "New Hampshire", "city": "Collinsville", "address": "357 Vista Field", "zipcode": "74629", "bedrooms": "3", "bathroom": "Yes", "wifi": "Yes", "kitchen": "Yes"}, {"state": "North Dakota", "city": "Urbana", "address": "1165 Guerrero Avenue", "zipcode": "87725", "bedrooms": "1", "bathroom": "No", "wifi": "Yes", "kitchen": "No"}, {"state": "Massachusetts", "city": "San Luis", "address": "146 Fratessa Plaza", "zipcode": "17398", "bedrooms": "3", "bathroom": "Yes", "wifi": "Yes", "kitchen": "Yes"}, {"state": "Vermont", "city": "Oakley", "address": "1312 Kempton Landing", "zipcode": "99673", "bedrooms": "2", "bathroom": "No", "wifi": "Yes", "kitchen": "Yes"}, {"state": "Iowa", "city": "Battle Creek", "address": "35 Amherst Center", "zipcode": "28894", "bedrooms": "3", "bathroom": "No", "wifi": "No", "kitchen": "No"}, {"state": "Nebraska", "city": "Michigan City", "address": "1381 Yacht Glen", "zipcode": "30259", "bedrooms": "3", "bathroom": "Yes", "wifi": "No", "kitchen": "No"}, {"state": "South Dakota", "city": "Reedley", "address": "452 Pink Motorway", "zipcode": "94857", "bedrooms": "2", "bathroom": "No", "wifi": "No", "kitchen": "No"}, {"state": "Vermont", "city": "Eureka", "address": "1011 Fontinella Alley", "zipcode": "05015", "bedrooms": "2", "bathroom": "Yes", "wifi": "No", "kitchen": "No"}, {"state": "Virginia", "city": "Bothell", "address": "385 Service Arcade", "zipcode": "20807", "bedrooms": "2", "bathroom": "Yes", "wifi": "No", "kitchen": "No"}, {"state": "Alabama", "city": "Redlands", "address": "827 Jeopardy Gardens", "zipcode": "32498", "bedrooms": "1", "bathroom": "No", "wifi": "Yes", "kitchen": "Yes"}, {"state": "Arkansas", "city": "Apache Junction", "address": "1291 Moraga Route", "zipcode": "87323", "bedrooms": "1", "bathroom": "No", "wifi": "Yes", "kitchen": "No"}, {"state": "Connecticut", "city": "Hillsboro", "address": "1371 Washburn Route", "zipcode": "26192", "bedrooms": "3", "bathroom": "Yes", "wifi": "Yes", "kitchen": "Yes"}, {"state": "Illinois", "city": "Pharr", "address": "637 Redwood Road", "zipcode": "35994", "bedrooms": "2", "bathroom": "Yes", "wifi": "No", "kitchen": "No"}, {"state": "New Hampshire", "city": "Fitchburg", "address": "1237 Rice Extension", "zipcode": "42846", "bedrooms": "2", "bathroom": "Yes", "wifi": "Yes", "kitchen": "No"}, {"state": "Washington", "city": "Keller", "address": "301 Gay Highway", "zipcode": "84780", "bedrooms": "3", "bathroom": "Yes", "wifi": "No", "kitchen": "Yes"}, {"state": "Massachusetts", "city": "Sarasota", "address": "706 Lillian Bend", "zipcode": "00812", "bedrooms": "3", "bathroom": "Yes", "wifi": "Yes", "kitchen": "No"}, {"state": "Nebraska", "city": "Lafayette", "address": "452 Gladiolus Drive", "zipcode": "15380", "bedrooms": "4", "bathroom": "No", "wifi": "No", "kitchen": "No"}, {"state": "South Carolina", "city": "Stow", "address": "141 Vicksburg Ferry", "zipcode": "30400", "bedrooms": "2", "bathroom": "Yes", "wifi": "No", "kitchen": "Yes"}, {"state": "Wisconsin", "city": "Texarkana", "address": "701 Bernice Rodgers Point", "zipcode": "04402", "bedrooms": "3", "bathroom": "No", "wifi": "Yes", "kitchen": "Yes"}, {"state": "Connecticut", "city": "Fort Worth", "address": "238 Ozbourn Pine", "zipcode": "83741", "bedrooms": "2", "bathroom": "Yes", "wifi": "Yes", "kitchen": "No"}, {"state": "Montana", "city": "Perth Amboy", "address": "804 La Salle Highway", "zipcode": "72677", "bedrooms": "2", "bathroom": "No", "wifi": "Yes", "kitchen": "Yes"}, {"state": "Hawaii", "city": "Redding", "address": "772 Van Buren Expressway", "zipcode": "38158", "bedrooms": "1", "bathroom": "No", "wifi": "No", "kitchen": "No"}, {"state": "Kansas", "city": "Goshen", "address": "1069 Elmwood Ferry", "zipcode": "45309", "bedrooms": "1", "bathroom": "No", "wifi": "No", "kitchen": "Yes"}, {"state": "North Carolina", "city": "Agoura Hills", "address": "153 Whipple Motorway", "zipcode": "27163", "bedrooms": "3", "bathroom": "No", "wifi": "Yes", "kitchen": "Yes"}, {"state": "New York", "city": "McDonough", "address": "104 Maxwell Field", "zipcode": "31139", "bedrooms": "2", "bathroom": "Yes", "wifi": "No", "kitchen": "Yes"}, {"state": "Montana", "city": "Takoma Park", "address": "16 Madrid Road", "zipcode": "68949", "bedrooms": "4", "bathroom": "Yes", "wifi": "No", "kitchen": "No"}, {"state": "Texas", "city": "Prior Lake", "address": "953 San Juan Hills", "zipcode": "42148", "bedrooms": "4", "bathroom": "Yes", "wifi": "Yes", "kitchen": "No"}, {"state": "Ohio", "city": "Streamwood", "address": "636 Morning Glory Avenue", "zipcode": "95789", "bedrooms": "1", "bathroom": "Yes", "wifi": "No", "kitchen": "Yes"}, {"state": "Oregon", "city": "Chapel Hill", "address": "1022 Oriole Rapids", "zipcode": "11245", "bedrooms": "1", "bathroom": "Yes", "wifi": "No", "kitchen": "No"}, {"state": "New York", "city": "Rockford", "address": "316 Nahua Pine", "zipcode": "45950", "bedrooms": "2", "bathroom": "No", "wifi": "No", "kitchen": "Yes"}, {"state": "Hawaii", "city": "Newport", "address": "1038 Holland Bridge", "zipcode": "94935", "bedrooms": "2", "bathroom": "Yes", "wifi": "Yes", "kitchen": "Yes"}, {"state": "New Hampshire", "city": "Hendersonville", "address": "423 Bellair Expressway", "zipcode": "29236", "bedrooms": "4", "bathroom": "No", "wifi": "Yes", "kitchen": "Yes"}, {"state": "Alabama", "city": "Kirksville", "address": "219 Raleigh Rapids", "zipcode": "97571", "bedrooms": "1", "bathroom": "No", "wifi": "Yes", "kitchen": "No"}, {"state": "Utah", "city": "Norwich", "address": "951 Simonds Route", "zipcode": "63892", "bedrooms": "3", "bathroom": "No", "wifi": "Yes", "kitchen": "No"}, {"state": "Vermont", "city": "Pocatello", "address": "755 Rio Verde Freeway", "zipcode": "85785", "bedrooms": "3", "bathroom": "No", "wifi": "Yes", "kitchen": "No"}, {"state": "California", "city": "Twin Falls", "address": "242 Broad Cove", "zipcode": "88063", "bedrooms": "3", "bathroom": "Yes", "wifi": "Yes", "kitchen": "No"}, {"state": "Maine", "city": "Cudahy", "address": "924 Plaza Ferry", "zipcode": "35068", "bedrooms": "2", "bathroom": "Yes", "wifi": "No", "kitchen": "Yes"}, {"state": "Virginia", "city": "Flower Mound", "address": "1337 Maiden Hills", "zipcode": "97017", "bedrooms": "3", "bathroom": "Yes", "wifi": "Yes", "kitchen": "Yes"}, {"state": "West Virginia", "city": "Kirkland", "address": "56 Earl Highway", "zipcode": "05788", "bedrooms": "1", "bathroom": "No", "wifi": "No", "kitchen": "No"}, {"state": "North Carolina", "city": "Galesburg", "address": "1135 Lauren Crossing", "zipcode": "25675", "bedrooms": "3", "bathroom": "No", "wifi": "Yes", "kitchen": "Yes"}, {"state": "Illinois", "city": "Middletown", "address": "497 Circular Landing", "zipcode": "21672", "bedrooms": "2", "bathroom": "No", "wifi": "No", "kitchen": "No"}, {"state": "Maine", "city": "Cuyahoga Falls", "address": "568 Progress Landing", "zipcode": "08622", "bedrooms": "1", "bathroom": "No", "wifi": "No", "kitchen": "Yes"}, {"state": "Florida", "city": "Hamtramck", "address": "309 Russia Annex", "zipcode": "30811", "bedrooms": "3", "bathroom": "No", "wifi": "No", "kitchen": "Yes"}, {"state": "Louisiana", "city": "East Palo Alto", "address": "1339 Quintara Arcade", "zipcode": "27514", "bedrooms": "3", "bathroom": "No", "wifi": "Yes", "kitchen": "Yes"}, {"state": "Tennessee", "city": "Kokomo", "address": "357 Topeka Loop", "zipcode": "27625", "bedrooms": "3", "bathroom": "No", "wifi": "Yes", "kitchen": "Yes"}, {"state": "Iowa", "city": "Wilson", "address": "773 Prague Alley", "zipcode": "63589", "bedrooms": "4", "bathroom": "No", "wifi": "Yes", "kitchen": "Yes"}, {"state": "Connecticut", "city": "Lomita", "address": "736 Topaz Crescent", "zipcode": "00373", "bedrooms": "3", "bathroom": "Yes", "wifi": "No", "kitchen": "No"}, {"state": "Nebraska", "city": "Altamonte Springs", "address": "857 Parkhurst Extension", "zipcode": "61516", "bedrooms": "4", "bathroom": "Yes", "wifi": "Yes", "kitchen": "No"}, {"state": "New Mexico", "city": "Port Angeles", "address": "772 Foote Field", "zipcode": "84074", "bedrooms": "3", "bathroom": "No", "wifi": "Yes", "kitchen": "Yes"}, {"state": "Texas", "city": "Crest Hill", "address": "837 Arballo Hills", "zipcode": "69397", "bedrooms": "2", "bathroom": "Yes", "wifi": "Yes", "kitchen": "Yes"}, {"state": "New Jersey", "city": "Aliso Viejo", "address": "330 Martha Spur", "zipcode": "31325", "bedrooms": "2", "bathroom": "No", "wifi": "No", "kitchen": "Yes"}, {"state": "New Hampshire", "city": "Round Lake Beach", "address": "1266 Music Concourse Access Pass", "zipcode": "27017", "bedrooms": "1", "bathroom": "No", "wifi": "Yes", "kitchen": "Yes"}, {"state": "Pennsylvania", "city": "Hazleton", "address": "879 Turk Hill", "zipcode": "98180", "bedrooms": "2", "bathroom": "No", "wifi": "Yes", "kitchen": "Yes"}, {"state": "Virginia", "city": "St. Clair Shores", "address": "705 Flora Center", "zipcode": "87538", "bedrooms": "2", "bathroom": "Yes", "wifi": "Yes", "kitchen": "No"}, {"state": "Mississippi", "city": "Northglenn", "address": "875 Hoff Terrace", "zipcode": "72256", "bedrooms": "1", "bathroom": "Yes", "wifi": "Yes", "kitchen": "No"}, {"state": "Nevada", "city": "Brentwood", "address": "384 Clyde Boulevard", "zipcode": "89925", "bedrooms": "2", "bathroom": "No", "wifi": "Yes", "kitchen": "Yes"}, {"state": "New Hampshire", "city": "Davis", "address": "51 Jean Viaduct", "zipcode": "33491", "bedrooms": "3", "bathroom": "No", "wifi": "Yes", "kitchen": "Yes"}, {"state": "Hawaii", "city": "National City", "address": "980 Samoset Estate", "zipcode": "95386", "bedrooms": "4", "bathroom": "No", "wifi": "No", "kitchen": "Yes"}, {"state": "Washington", "city": "Havelock", "address": "582 Erie Pike", "zipcode": "25015", "bedrooms": "4", "bathroom": "Yes", "wifi": "No", "kitchen": "No"}, {"state": "Kansas", "city": "New Berlin", "address": "229 Zampa Mall", "zipcode": "01207", "bedrooms": "4", "bathroom": "No", "wifi": "No", "kitchen": "No"}, {"state": "Colorado", "city": "Lynbrook", "address": "499 Iron Parkway", "zipcode": "17779", "bedrooms": "1", "bathroom": "Yes", "wifi": "Yes", "kitchen": "No"}, {"state": "Florida", "city": "St. Louis", "address": "625 Florentine Plaza", "zipcode": "26185", "bedrooms": "3", "bathroom": "No", "wifi": "No", "kitchen": "No"}, {"state": "Iowa", "city": "Tigard", "address": "1359 Blatchford Field", "zipcode": "23361", "bedrooms": "1", "bathroom": "Yes", "wifi": "Yes", "kitchen": "Yes"}, {"state": "Maine", "city": "Pittsfield", "address": "962 Erkson Freeway", "zipcode": "43135", "bedrooms": "3", "bathroom": "Yes", "wifi": "No", "kitchen": "Yes"}, {"state": "Colorado", "city": "Frisco", "address": "127 Spencer Point", "zipcode": "57515", "bedrooms": "2", "bathroom": "No", "wifi": "No", "kitchen": "No"}, {"state": "Alaska", "city": "San Bruno", "address": "833 Prentiss Parkway", "zipcode": "28955", "bedrooms": "3", "bathroom": "Yes", "wifi": "Yes", "kitchen": "No"}, {"state": "Kansas", "city": "Sand Springs", "address": "450 Verdun Alley", "zipcode": "15623", "bedrooms": "4", "bathroom": "No", "wifi": "No", "kitchen": "No"}, {"state": "West Virginia", "city": "Goshen", "address": "796 Zoe Walk", "zipcode": "55456", "bedrooms": "2", "bathroom": "No", "wifi": "No", "kitchen": "No"}, {"state": "New Jersey", "city": "Paramus", "address": "854 Florence Place", "zipcode": "86989", "bedrooms": "4", "bathroom": "No", "wifi": "No", "kitchen": "Yes"}, {"state": "Iowa", "city": "Elkhart", "address": "1126 De Wolf Heights", "zipcode": "04297", "bedrooms": "3", "bathroom": "Yes", "wifi": "Yes", "kitchen": "Yes"}, {"state": "Vermont", "city": "Paradise", "address": "218 Doric Garden", "zipcode": "26571", "bedrooms": "2", "bathroom": "No", "wifi": "Yes", "kitchen": "No"}, {"state": "Mississippi", "city": "Bell", "address": "400 Boylston Drive", "zipcode": "68704", "bedrooms": "2", "bathroom": "No", "wifi": "No", "kitchen": "Yes"}, {"state": "Ohio", "city": "Hialeah", "address": "446 Gordon Ranch", "zipcode": "34079", "bedrooms": "2", "bathroom": "Yes", "wifi": "No", "kitchen": "No"}, {"state": "New Hampshire", "city": "Dunedin", "address": "331 Balmy Garden", "zipcode": "22319", "bedrooms": "2", "bathroom": "Yes", "wifi": "No", "kitchen": "No"}, {"state": "Michigan", "city": "Sycamore", "address": "1085 Ramona Boulevard", "zipcode": "76762", "bedrooms": "4", "bathroom": "Yes", "wifi": "Yes", "kitchen": "No"}, {"state": "Montana", "city": "Terrell", "address": "860 Glenhaven Point", "zipcode": "69422", "bedrooms": "3", "bathroom": "No", "wifi": "Yes", "kitchen": "Yes"}, {"state": "Delaware", "city": "Millville", "address": "1286 Beideman Arcade", "zipcode": "78590", "bedrooms": "2", "bathroom": "Yes", "wifi": "No", "kitchen": "Yes"}, {"state": "Arkansas", "city": "Huntington Park", "address": "55 Ophir Bend", "zipcode": "02666", "bedrooms": "2", "bathroom": "No", "wifi": "No", "kitchen": "No"}, {"state": "Delaware", "city": "Fuquay-Varina", "address": "1108 Havenside Hills", "zipcode": "44430", "bedrooms": "1", "bathroom": "No", "wifi": "Yes", "kitchen": "Yes"}, {"state": "North Dakota", "city": "Redwood City", "address": "581 Bocana Ferry", "zipcode": "47932", "bedrooms": "1", "bathroom": "Yes", "wifi": "No", "kitchen": "Yes"}, {"state": "Oregon", "city": "Bloomingdale", "address": "44 Shakespeare Boulevard", "zipcode": "10940", "bedrooms": "2", "bathroom": "Yes", "wifi": "No", "kitchen": "No"}, {"state": "Pennsylvania", "city": "Ceres", "address": "1296 Cardenas Circle", "zipcode": "98332", "bedrooms": "4", "bathroom": "No", "wifi": "No", "kitchen": "Yes"}, {"state": "New Hampshire", "city": "Boulder", "address": "926 Goettingen Pass", "zipcode": "30513", "bedrooms": "3", "bathroom": "Yes", "wifi": "No", "kitchen": "Yes"}, {"state": "New Jersey", "city": "Lake Oswego", "address": "668 Addison Junction", "zipcode": "75972", "bedrooms": "4", "bathroom": "Yes", "wifi": "Yes", "kitchen": "No"}, {"state": "Utah", "city": "Crystal", "address": "23 Pulaski Walk", "zipcode": "34386", "bedrooms": "1", "bathroom": "No", "wifi": "No", "kitchen": "No"}, {"state": "Oklahoma", "city": "Friendswood", "address": "272 Harold Stravenue", "zipcode": "64756", "bedrooms": "4", "bathroom": "No", "wifi": "Yes", "kitchen": "Yes"}, {"state": "Minnesota", "city": "Creve Coeur", "address": "1360 Stoneyford Junction", "zipcode": "48234", "bedrooms": "4", "bathroom": "No", "wifi": "No", "kitchen": "Yes"}, {"state": "Nevada", "city": "Winter Garden", "address": "199 Service Trail", "zipcode": "29835", "bedrooms": "4", "bathroom": "No", "wifi": "No", "kitchen": "Yes"}, {"state": "West Virginia", "city": "Atlanta", "address": "704 Martinez Arcade", "zipcode": "70981", "bedrooms": "2", "bathroom": "No", "wifi": "No", "kitchen": "Yes"}, {"state": "Delaware", "city": "Birmingham", "address": "906 Bernice Street", "zipcode": "40768", "bedrooms": "1", "bathroom": "No", "wifi": "No", "kitchen": "Yes"}, {"state": "Nebraska", "city": "Alpharetta", "address": "1306 College Grove", "zipcode": "70419", "bedrooms": "1", "bathroom": "Yes", "wifi": "No", "kitchen": "Yes"}, {"state": "Iowa", "city": "Johnson City", "address": "483 Addison Glen", "zipcode": "71969", "bedrooms": "1", "bathroom": "Yes", "wifi": "No", "kitchen": "No"}, {"state": "Washington", "city": "Oshkosh", "address": "1391 Sumner Crossing", "zipcode": "37254", "bedrooms": "4", "bathroom": "Yes", "wifi": "No", "kitchen": "Yes"}, {"state": "Alaska", "city": "Monterey Park", "address": "1142 Hunters Point Run", "zipcode": "67471", "bedrooms": "4", "bathroom": "Yes", "wifi": "No", "kitchen": "No"}, {"state": "Arkansas", "city": "Michigan City", "address": "1202 Museum Arcade", "zipcode": "38438", "bedrooms": "3", "bathroom": "No", "wifi": "Yes", "kitchen": "Yes"}, {"state": "Pennsylvania", "city": "Naperville", "address": "958 Crescio Motorway", "zipcode": "73008", "bedrooms": "2", "bathroom": "No", "wifi": "Yes", "kitchen": "Yes"}, {"state": "South Dakota", "city": "Glen Cove", "address": "491 Marshall Ranch", "zipcode": "73989", "bedrooms": "1", "bathroom": "Yes", "wifi": "Yes", "kitchen": "No"}, {"state": "Michigan", "city": "Plantation", "address": "66 Windsor Mill Bayou", "zipcode": "48210", "bedrooms": "2", "bathroom": "Yes", "wifi": "No", "kitchen": "No"}, {"state": "Oregon", "city": "East St. Louis", "address": "1003 San Marcos Square", "zipcode": "40461", "bedrooms": "2", "bathroom": "Yes", "wifi": "Yes", "kitchen": "No"}, {"state": "West Virginia", "city": "Maple Grove", "address": "1245 Grand View Lodge", "zipcode": "53871", "bedrooms": "1", "bathroom": "No", "wifi": "Yes", "kitchen": "No"}, {"state": "Rhode Island", "city": "Solon", "address": "795 Mulford Extension", "zipcode": "13537", "bedrooms": "3", "bathroom": "Yes", "wifi": "Yes", "kitchen": "No"}, {"state": "Tennessee", "city": "Benbrook", "address": "305 Willard Place", "zipcode": "28811", "bedrooms": "1", "bathroom": "Yes", "wifi": "Yes", "kitchen": "Yes"}, {"state": "Washington", "city": "Manitowoc", "address": "1193 Robinhood Court", "zipcode": "85236", "bedrooms": "1", "bathroom": "No", "wifi": "Yes", "kitchen": "Yes"}, {"state": "Virginia", "city": "Paterson", "address": "448 Germania Turnpike", "zipcode": "42750", "bedrooms": "2", "bathroom": "Yes", "wifi": "No", "kitchen": "No"}, {"state": "Oklahoma", "city": "Forest Park", "address": "787 Drumm Mews", "zipcode": "17541", "bedrooms": "1", "bathroom": "No", "wifi": "Yes", "kitchen": "No"}, {"state": "Colorado", "city": "Wisconsin Rapids", "address": "222 Crane Arcade", "zipcode": "34760", "bedrooms": "4", "bathroom": "Yes", "wifi": "Yes", "kitchen": "Yes"}, {"state": "Colorado", "city": "Lewisville", "address": "210 Kalmanovitz Ferry", "zipcode": "23929", "bedrooms": "3", "bathroom": "No", "wifi": "Yes", "kitchen": "No"}, {"state": "Connecticut", "city": "Lansing", "address": "1025 Pershing Canyon", "zipcode": "08883", "bedrooms": "2", "bathroom": "No", "wifi": "No", "kitchen": "No"}, {"state": "Alaska", "city": "Corsicana", "address": "559 Laidley Landing", "zipcode": "68639", "bedrooms": "2", "bathroom": "Yes", "wifi": "No", "kitchen": "Yes"}, {"state": "Virginia", "city": "Clovis", "address": "932 Teresita Extension", "zipcode": "16163", "bedrooms": "4", "bathroom": "No", "wifi": "No", "kitchen": "Yes"}, {"state": "Colorado", "city": "Crest Hill", "address": "326 Gay Trace", "zipcode": "78924", "bedrooms": "4", "bathroom": "Yes", "wifi": "No", "kitchen": "No"}, {"state": "Mississippi", "city": "Oak Lawn", "address": "654 Harlan Bayou", "zipcode": "39125", "bedrooms": "3", "bathroom": "Yes", "wifi": "Yes", "kitchen": "No"}, {"state": "Oklahoma", "city": "Rochester Hills", "address": "362 Pinehurst Field", "zipcode": "83726", "bedrooms": "2", "bathroom": "Yes", "wifi": "Yes", "kitchen": "No"}, {"state": "Colorado", "city": "Keller", "address": "909 Veterans Mews", "zipcode": "76261", "bedrooms": "3", "bathroom": "Yes", "wifi": "No", "kitchen": "No"}, {"state": "South Carolina", "city": "De Land", "address": "1251 Gorgas Extension", "zipcode": "89732", "bedrooms": "1", "bathroom": "Yes", "wifi": "Yes", "kitchen": "Yes"}, {"state": "Georgia", "city": "East Lansing", "address": "826 Dutch Windmill Access Extension", "zipcode": "69958", "bedrooms": "3", "bathroom": "Yes", "wifi": "Yes", "kitchen": "No"}, {"state": "New York", "city": "Auburn Hills", "address": "139 Houston Ranch", "zipcode": "38267", "bedrooms": "3", "bathroom": "No", "wifi": "No", "kitchen": "No"}, {"state": "West Virginia", "city": "Thornton", "address": "1393 John Junction", "zipcode": "89323", "bedrooms": "2", "bathroom": "No", "wifi": "No", "kitchen": "No"}, {"state": "Louisiana", "city": "Geneva", "address": "1125 Hollywood Terrace", "zipcode": "28271", "bedrooms": "4", "bathroom": "Yes", "wifi": "No", "kitchen": "No"}, {"state": "Delaware", "city": "Cedar Falls", "address": "748 Moncada Avenue", "zipcode": "98659", "bedrooms": "2", "bathroom": "No", "wifi": "No", "kitchen": "No"}, {"state": "Illinois", "city": "Bangor", "address": "983 Olympia Highway", "zipcode": "44005", "bedrooms": "2", "bathroom": "No", "wifi": "No", "kitchen": "Yes"}, {"state": "West Virginia", "city": "Wausau", "address": "163 Bank Estate", "zipcode": "52262", "bedrooms": "1", "bathroom": "No", "wifi": "Yes", "kitchen": "No"}, {"state": "Alabama", "city": "Pinecrest", "address": "571 Noe Crossing", "zipcode": "28440", "bedrooms": "1", "bathroom": "Yes", "wifi": "Yes", "kitchen": "No"}, {"state": "Arizona", "city": "Lynn", "address": "1196 Lenox Place", "zipcode": "03607", "bedrooms": "2", "bathroom": "No", "wifi": "Yes", "kitchen": "Yes"}, {"state": "Delaware", "city": "Mokena", "address": "327 Delaware Trace", "zipcode": "21549", "bedrooms": "3", "bathroom": "Yes", "wifi": "No", "kitchen": "No"}, {"state": "Maine", "city": "Franklin", "address": "956 Vulcan Court", "zipcode": "56850", "bedrooms": "1", "bathroom": "No", "wifi": "Yes", "kitchen": "No"}, {"state": "South Carolina", "city": "Bangor", "address": "1188 Merritt Manor", "zipcode": "05747", "bedrooms": "2", "bathroom": "Yes", "wifi": "Yes", "kitchen": "No"}, {"state": "Maine", "city": "Pearland", "address": "1349 Swiss Motorway", "zipcode": "41357", "bedrooms": "1", "bathroom": "No", "wifi": "No", "kitchen": "No"}, {"state": "Pennsylvania", "city": "Grand Island", "address": "326 San Anselmo Trace", "zipcode": "37234", "bedrooms": "4", "bathroom": "No", "wifi": "Yes", "kitchen": "Yes"}, {"state": "West Virginia", "city": "Pasadena", "address": "710 Rockridge Place", "zipcode": "35146", "bedrooms": "3", "bathroom": "No", "wifi": "No", "kitchen": "No"}, {"state": "Nebraska", "city": "Edgewater", "address": "1321 Bitting Freeway", "zipcode": "55385", "bedrooms": "1", "bathroom": "No", "wifi": "No", "kitchen": "Yes"}, {"state": "Ohio", "city": "Erlanger", "address": "1177 Harkness Drive", "zipcode": "72081", "bedrooms": "4", "bathroom": "Yes", "wifi": "No", "kitchen": "Yes"}, {"state": "Kansas", "city": "Maywood", "address": "548 Vale Parkway", "zipcode": "73083", "bedrooms": "2", "bathroom": "Yes", "wifi": "Yes", "kitchen": "Yes"}, {"state": "New York", "city": "Monroeville", "address": "859 Henry Adams Bridge", "zipcode": "90082", "bedrooms": "2", "bathroom": "Yes", "wifi": "No", "kitchen": "No"}, {"state": "Colorado", "city": "Lawton", "address": "360 Behr Gardens", "zipcode": "00030", "bedrooms": "4", "bathroom": "Yes", "wifi": "No", "kitchen": "Yes"}, {"state": "Oregon", "city": "Weatherford", "address": "1146 Marist Pine", "zipcode": "69313", "bedrooms": "2", "bathroom": "Yes", "wifi": "Yes", "kitchen": "No"}, {"state": "West Virginia", "city": "Temple Terrace", "address": "1392 South Hughes Freeway", "zipcode": "00622", "bedrooms": "3", "bathroom": "Yes", "wifi": "No", "kitchen": "No"}, {"state": "North Carolina", "city": "Longmont", "address": "114 Brazil Pine", "zipcode": "06572", "bedrooms": "1", "bathroom": "No", "wifi": "No", "kitchen": "No"}, {"state": "Nevada", "city": "Thornton", "address": "368 Cochrane Lodge", "zipcode": "38934", "bedrooms": "1", "bathroom": "Yes", "wifi": "Yes", "kitchen": "No"}, {"state": "Wisconsin", "city": "Paramount", "address": "252 Wedemeyer Alley", "zipcode": "12596", "bedrooms": "3", "bathroom": "No", "wifi": "Yes", "kitchen": "No"}, {"state": "Minnesota", "city": "Pleasant Prairie", "address": "181 Lyndhurst Bypass", "zipcode": "51920", "bedrooms": "4", "bathroom": "No", "wifi": "No", "kitchen": "No"}, {"state": "Missouri", "city": "Binghamton", "address": "1235 Calvert Place", "zipcode": "65165", "bedrooms": "4", "bathroom": "Yes", "wifi": "No", "kitchen": "Yes"}, {"state": "Maryland", "city": "Coral Springs", "address": "1082 Buchanan Plaza", "zipcode": "14521", "bedrooms": "4", "bathroom": "No", "wifi": "Yes", "kitchen": "Yes"}, {"state": "Minnesota", "city": "Bonita Springs", "address": "404 Stanton Garden", "zipcode": "55649", "bedrooms": "3", "bathroom": "Yes", "wifi": "No", "kitchen": "Yes"}, {"state": "Oregon", "city": "Kearney", "address": "1082 Belden Point", "zipcode": "41747", "bedrooms": "2", "bathroom": "No", "wifi": "No", "kitchen": "No"}, {"state": "Hawaii", "city": "Evansville", "address": "998 Boyd Hills", "zipcode": "81335", "bedrooms": "2", "bathroom": "Yes", "wifi": "Yes", "kitchen": "No"}, {"state": "California", "city": "Pico Rivera", "address": "364 Tampa Trail", "zipcode": "51208", "bedrooms": "2", "bathroom": "No", "wifi": "No", "kitchen": "No"}, {"state": "California", "city": "Winchester", "address": "1076 Richard Henry Dana Street", "zipcode": "05491", "bedrooms": "2", "bathroom": "No", "wifi": "No", "kitchen": "Yes"}, {"state": "Maryland", "city": "Lincoln", "address": "468 Troy Park", "zipcode": "63338", "bedrooms": "2", "bathroom": "Yes", "wifi": "Yes", "kitchen": "Yes"}, {"state": "Alabama", "city": "West Jordan", "address": "997 Drake Pike", "zipcode": "43323", "bedrooms": "3", "bathroom": "Yes", "wifi": "No", "kitchen": "No"}, {"state": "New York", "city": "Deltona", "address": "6 Lily Square", "zipcode": "80681", "bedrooms": "4", "bathroom": "Yes", "wifi": "No", "kitchen": "No"}, {"state": "Pennsylvania", "city": "Pueblo", "address": "555 Whitfield Crossing", "zipcode": "92906", "bedrooms": "3", "bathroom": "Yes", "wifi": "Yes", "kitchen": "Yes"}, {"state": "South Carolina", "city": "Ocean Springs", "address": "1283 Palo Alto Path", "zipcode": "62881", "bedrooms": "4", "bathroom": "No", "wifi": "No", "kitchen": "No"}, {"state": "Montana", "city": "Plainfield", "address": "1111 Duncan Drive", "zipcode": "77642", "bedrooms": "2", "bathroom": "No", "wifi": "No", "kitchen": "No"}, {"state": "Alabama", "city": "Raleigh", "address": "1188 Edward Grove", "zipcode": "34522", "bedrooms": "2", "bathroom": "Yes", "wifi": "Yes", "kitchen": "Yes"}, {"state": "Kentucky", "city": "Eastlake", "address": "276 Quintara Annex", "zipcode": "57974", "bedrooms": "1", "bathroom": "Yes", "wifi": "Yes", "kitchen": "Yes"}, {"state": "Missouri", "city": "Cedar Falls", "address": "1383 Palos Trace", "zipcode": "03553", "bedrooms": "2", "bathroom": "No", "wifi": "No", "kitchen": "No"}, {"state": "Utah", "city": "Balch Springs", "address": "1178 Carrie Arcade", "zipcode": "10177", "bedrooms": "3", "bathroom": "Yes", "wifi": "No", "kitchen": "No"}, {"state": "Oregon", "city": "Blaine", "address": "139 Santa Fe Bayou", "zipcode": "27568", "bedrooms": "2", "bathroom": "Yes", "wifi": "No", "kitchen": "Yes"}, {"state": "Ohio", "city": "Rochester Hills", "address": "966 Montclair Stravenue", "zipcode": "09057", "bedrooms": "4", "bathroom": "Yes", "wifi": "No", "kitchen": "No"}, {"state": "Nevada", "city": "Palos Hills", "address": "863 Turquoise Glen", "zipcode": "53640", "bedrooms": "4", "bathroom": "Yes", "wifi": "Yes", "kitchen": "No"}, {"state": "Connecticut", "city": "Redlands", "address": "844 North Annex", "zipcode": "10929", "bedrooms": "4", "bathroom": "No", "wifi": "No", "kitchen": "No"}, {"state": "Georgia", "city": "Owatonna", "address": "485 Loma Vista Boulevard", "zipcode": "97247", "bedrooms": "4", "bathroom": "Yes", "wifi": "Yes", "kitchen": "Yes"}, {"state": "South Carolina", "city": "Lino Lakes", "address": "888 Seal Cove Square", "zipcode": "60991", "bedrooms": "1", "bathroom": "Yes", "wifi": "Yes", "kitchen": "No"}, {"state": "Alaska", "city": "Niagara Falls", "address": "224 Salmon Lane", "zipcode": "42354", "bedrooms": "4", "bathroom": "Yes", "wifi": "No", "kitchen": "No"}, {"state": "Kansas", "city": "San Angelo", "address": "509 Osage Mall", "zipcode": "75943", "bedrooms": "3", "bathroom": "No", "wifi": "Yes", "kitchen": "No"}, {"state": "Maine", "city": "Forest Park", "address": "1096 Child Station", "zipcode": "66670", "bedrooms": "2", "bathroom": "No", "wifi": "No", "kitchen": "No"}, {"state": "Maryland", "city": "Clearfield", "address": "627 Majestic Row", "zipcode": "40522", "bedrooms": "3", "bathroom": "No", "wifi": "No", "kitchen": "No"}, {"state": "Kentucky", "city": "Detroit", "address": "820 Natick Lane", "zipcode": "48816", "bedrooms": "3", "bathroom": "No", "wifi": "Yes", "kitchen": "No"}, {"state": "New Mexico", "city": "Stockton", "address": "1398 Kobbe Annex", "zipcode": "95192", "bedrooms": "4", "bathroom": "Yes", "wifi": "Yes", "kitchen": "Yes"}, {"state": "Ohio", "city": "Lisle", "address": "75 San Pablo Spur", "zipcode": "45547", "bedrooms": "4", "bathroom": "Yes", "wifi": "Yes", "kitchen": "Yes"}, {"state": "New York", "city": "Keizer", "address": "114 Hester Plaza", "zipcode": "02080", "bedrooms": "4", "bathroom": "Yes", "wifi": "Yes", "kitchen": "No"}, {"state": "Idaho", "city": "Cambridge", "address": "835 Shields Grove", "zipcode": "98364", "bedrooms": "4", "bathroom": "Yes", "wifi": "Yes", "kitchen": "Yes"}, {"state": "Kentucky", "city": "Round Rock", "address": "752 Cole Manor", "zipcode": "96532", "bedrooms": "2", "bathroom": "No", "wifi": "Yes", "kitchen": "Yes"}, {"state": "Michigan", "city": "Palatine", "address": "1023 Brentwood Stravenue", "zipcode": "56100", "bedrooms": "2", "bathroom": "Yes", "wifi": "Yes", "kitchen": "Yes"}, {"state": "Illinois", "city": "Bonita Springs", "address": "308 La Playa Route", "zipcode": "74327", "bedrooms": "2", "bathroom": "Yes", "wifi": "Yes", "kitchen": "No"}, {"state": "Delaware", "city": "Chicago", "address": "47 Minerva Trail", "zipcode": "60862", "bedrooms": "1", "bathroom": "No", "wifi": "Yes", "kitchen": "No"}, {"state": "Texas", "city": "Harrison", "address": "892 Lakeview Expressway", "zipcode": "71537", "bedrooms": "1", "bathroom": "No", "wifi": "Yes", "kitchen": "Yes"}, {"state": "Idaho", "city": "Russellville", "address": "1269 Gateview 3 Green", "zipcode": "16076", "bedrooms": "1", "bathroom": "No", "wifi": "No", "kitchen": "No"}, {"state": "Oregon", "city": "North Platte", "address": "974 Havelock Ferry", "zipcode": "24965", "bedrooms": "4", "bathroom": "Yes", "wifi": "No", "kitchen": "Yes"}, {"state": "North Carolina", "city": "Greeley", "address": "1183 Reuel Shore", "zipcode": "12781", "bedrooms": "4", "bathroom": "Yes", "wifi": "Yes", "kitchen": "Yes"}, {"state": "Virginia", "city": "Parkland", "address": "1174 Cuesta Extension", "zipcode": "32942", "bedrooms": "2", "bathroom": "No", "wifi": "Yes", "kitchen": "No"}, {"state": "Vermont", "city": "Avon", "address": "240 Lamartine Park", "zipcode": "89794", "bedrooms": "2", "bathroom": "No", "wifi": "Yes", "kitchen": "Yes"}, {"state": "South Carolina", "city": "Lumberton", "address": "190 Glendale Extension", "zipcode": "87224", "bedrooms": "2", "bathroom": "Yes", "wifi": "No", "kitchen": "No"}, {"state": "Maryland", "city": "Vero Beach", "address": "1074 Wedemeyer Lane", "zipcode": "16287", "bedrooms": "4", "bathroom": "Yes", "wifi": "No", "kitchen": "No"}, {"state": "North Carolina", "city": "Eustis", "address": "189 Diaz Estate", "zipcode": "33194", "bedrooms": "3", "bathroom": "No", "wifi": "Yes", "kitchen": "Yes"}, {"state": "Florida", "city": "Sevierville", "address": "1067 Stanton Landing", "zipcode": "78291", "bedrooms": "3", "bathroom": "No", "wifi": "Yes", "kitchen": "Yes"}, {"state": "Rhode Island", "city": "Carlsbad", "address": "264 Jeopardy Rapids", "zipcode": "35222", "bedrooms": "3", "bathroom": "No", "wifi": "No", "kitchen": "No"}, {"state": "Washington", "city": "Gastonia", "address": "699 Clementina Lake", "zipcode": "61723", "bedrooms": "2", "bathroom": "No", "wifi": "No", "kitchen": "Yes"}, {"state": "Michigan", "city": "New Orleans", "address": "25 Anson Garden", "zipcode": "46141", "bedrooms": "3", "bathroom": "No", "wifi": "Yes", "kitchen": "No"}, {"state": "Alaska", "city": "Edwardsville", "address": "610 Stoneridge Annex", "zipcode": "95379", "bedrooms": "3", "bathroom": "Yes", "wifi": "No", "kitchen": "Yes"}, {"state": "Ohio", "city": "Elizabeth", "address": "422 Sfgh Access Place", "zipcode": "63083", "bedrooms": "4", "bathroom": "Yes", "wifi": "Yes", "kitchen": "No"}, {"state": "Missouri", "city": "York", "address": "1345 Lapidge Junction", "zipcode": "13539", "bedrooms": "1", "bathroom": "No", "wifi": "No", "kitchen": "Yes"}, {"state": "Idaho", "city": "San Carlos", "address": "70 Deems Lane", "zipcode": "97003", "bedrooms": "2", "bathroom": "No", "wifi": "Yes", "kitchen": "Yes"}, {"state": "Oklahoma", "city": "San Gabriel", "address": "1147 Lassen Viaduct", "zipcode": "27153", "bedrooms": "1", "bathroom": "Yes", "wifi": "No", "kitchen": "No"}, {"state": "Missouri", "city": "Newport Beach", "address": "216 Pollock Trail", "zipcode": "97137", "bedrooms": "1", "bathroom": "Yes", "wifi": "Yes", "kitchen": "Yes"}, {"state": "Ohio", "city": "Tupelo", "address": "761 Congdon Place", "zipcode": "39288", "bedrooms": "1", "bathroom": "No", "wifi": "Yes", "kitchen": "No"}, {"state": "South Dakota", "city": "Park Ridge", "address": "1310 Bryant Field", "zipcode": "37246", "bedrooms": "2", "bathroom": "No", "wifi": "Yes", "kitchen": "No"}, {"state": "Virginia", "city": "Ridgeland", "address": "1330 Stigwood Glen", "zipcode": "89377", "bedrooms": "3", "bathroom": "Yes", "wifi": "Yes", "kitchen": "No"}, {"state": "Kentucky", "city": "Wilsonville", "address": "908 Silverview Mews", "zipcode": "33086", "bedrooms": "4", "bathroom": "Yes", "wifi": "Yes", "kitchen": "Yes"}, {"state": "Vermont", "city": "York", "address": "1016 Jack Kerouac Shore", "zipcode": "56839", "bedrooms": "1", "bathroom": "Yes", "wifi": "No", "kitchen": "Yes"}, {"state": "Minnesota", "city": "Palmetto Bay", "address": "884 Vinton Hills", "zipcode": "38911", "bedrooms": "4", "bathroom": "Yes", "wifi": "Yes", "kitchen": "Yes"}, {"state": "Vermont", "city": "Rosemount", "address": "864 Severn Path", "zipcode": "50969", "bedrooms": "1", "bathroom": "Yes", "wifi": "Yes", "kitchen": "No"}, {"state": "Oregon", "city": "Ponca City", "address": "552 Arnold Road", "zipcode": "95072", "bedrooms": "2", "bathroom": "No", "wifi": "No", "kitchen": "Yes"}, {"state": "New Mexico", "city": "Rancho Cucamonga", "address": "90 Laguna Honda Loop", "zipcode": "00521", "bedrooms": "2", "bathroom": "Yes", "wifi": "No", "kitchen": "Yes"}, {"state": "Arizona", "city": "Susanville", "address": "1324 Williar Rapids", "zipcode": "79920", "bedrooms": "1", "bathroom": "Yes", "wifi": "Yes", "kitchen": "Yes"}, {"state": "Rhode Island", "city": "Logansport", "address": "97 Hallam Place", "zipcode": "48699", "bedrooms": "4", "bathroom": "Yes", "wifi": "Yes", "kitchen": "Yes"}, {"state": "Alabama", "city": "Manhattan Beach", "address": "1178 Pratt Lake", "zipcode": "85114", "bedrooms": "1", "bathroom": "Yes", "wifi": "No", "kitchen": "Yes"}, {"state": "Texas", "city": "Alton", "address": "1092 Granada Route", "zipcode": "27485", "bedrooms": "1", "bathroom": "No", "wifi": "Yes", "kitchen": "Yes"}, {"state": "Ohio", "city": "Willoughby", "address": "27 Crystal Manor", "zipcode": "90042", "bedrooms": "3", "bathroom": "No", "wifi": "No", "kitchen": "No"}, {"state": "Nebraska", "city": "El Paso", "address": "1108 Hallam Lake", "zipcode": "99536", "bedrooms": "4", "bathroom": "Yes", "wifi": "Yes", "kitchen": "No"}, {"state": "Wyoming", "city": "Lorain", "address": "195 Ironwood Expressway", "zipcode": "09297", "bedrooms": "4", "bathroom": "Yes", "wifi": "No", "kitchen": "No"}, {"state": "Wyoming", "city": "Kirkland", "address": "792 Sargent Mall", "zipcode": "90119", "bedrooms": "1", "bathroom": "Yes", "wifi": "No", "kitchen": "No"}, {"state": "Maryland", "city": "Brandon", "address": "254 Cayuga Shore", "zipcode": "61238", "bedrooms": "4", "bathroom": "Yes", "wifi": "Yes", "kitchen": "No"}, {"state": "Alabama", "city": "Davis", "address": "152 Saint Marys Station", "zipcode": "56599", "bedrooms": "3", "bathroom": "No", "wifi": "Yes", "kitchen": "No"}, {"state": "Wyoming", "city": "Elizabethtown", "address": "660 Imperial Park", "zipcode": "14212", "bedrooms": "3", "bathroom": "Yes", "wifi": "Yes", "kitchen": "Yes"}, {"state": "New Mexico", "city": "Oro Valley", "address": "1068 Stoneman Motorway", "zipcode": "60447", "bedrooms": "1", "bathroom": "Yes", "wifi": "No", "kitchen": "No"}, {"state": "South Dakota", "city": "Merced", "address": "448 Bryant Court", "zipcode": "21004", "bedrooms": "1", "bathroom": "No", "wifi": "No", "kitchen": "Yes"}, {"state": "Alabama", "city": "Sidney", "address": "697 Seawell Center", "zipcode": "87889", "bedrooms": "1", "bathroom": "No", "wifi": "No", "kitchen": "No"}, {"state": "Oregon", "city": "Huntington Beach", "address": "270 Santa Barbara Annex", "zipcode": "75925", "bedrooms": "1", "bathroom": "No", "wifi": "No", "kitchen": "No"}, {"state": "Illinois", "city": "Goldsboro", "address": "1121 Jose Sarria Path", "zipcode": "22858", "bedrooms": "1", "bathroom": "No", "wifi": "No", "kitchen": "Yes"}, {"state": "Delaware", "city": "Ridgeland", "address": "1142 Brush Annex", "zipcode": "45130", "bedrooms": "4", "bathroom": "No", "wifi": "No", "kitchen": "No"}, {"state": "New Hampshire", "city": "Colleyville", "address": "917 Dorchester Trail", "zipcode": "15199", "bedrooms": "2", "bathroom": "Yes", "wifi": "Yes", "kitchen": "No"}, {"state": "Louisiana", "city": "Fort Collins", "address": "459 Evelyn Annex", "zipcode": "92770", "bedrooms": "2", "bathroom": "No", "wifi": "No", "kitchen": "Yes"}, {"state": "Oregon", "city": "Maryville", "address": "757 Sonoma Path", "zipcode": "37304", "bedrooms": "4", "bathroom": "No", "wifi": "Yes", "kitchen": "No"}, {"state": "Missouri", "city": "Key West", "address": "873 Bliss Pike", "zipcode": "30633", "bedrooms": "1", "bathroom": "No", "wifi": "No", "kitchen": "No"}, {"state": "North Carolina", "city": "La Puente", "address": "437 Trumbull Walk", "zipcode": "51531", "bedrooms": "1", "bathroom": "Yes", "wifi": "No", "kitchen": "Yes"}, {"state": "Tennessee", "city": "Beaverton", "address": "288 Santa Monica Glen", "zipcode": "79465", "bedrooms": "1", "bathroom": "Yes", "wifi": "Yes", "kitchen": "Yes"}, {"state": "Indiana", "city": "Elmwood Park", "address": "1299 Presidio Stravenue", "zipcode": "75276", "bedrooms": "1", "bathroom": "No", "wifi": "Yes", "kitchen": "Yes"}, {"state": "South Dakota", "city": "Inkster", "address": "900 Cosmo Station", "zipcode": "97072", "bedrooms": "2", "bathroom": "Yes", "wifi": "Yes", "kitchen": "Yes"}, {"state": "Vermont", "city": "Homestead", "address": "887 Perasto Boulevard", "zipcode": "44342", "bedrooms": "2", "bathroom": "No", "wifi": "Yes", "kitchen": "No"}, {"state": "Ohio", "city": "Compton", "address": "555 Chase Green", "zipcode": "19424", "bedrooms": "1", "bathroom": "No", "wifi": "Yes", "kitchen": "Yes"}, {"state": "Washington", "city": "Takoma Park", "address": "777 Clover Boulevard", "zipcode": "91358", "bedrooms": "2", "bathroom": "No", "wifi": "No", "kitchen": "Yes"}, {"state": "Colorado", "city": "Kankakee", "address": "1171 Gambier Pike", "zipcode": "82910", "bedrooms": "1", "bathroom": "No", "wifi": "Yes", "kitchen": "No"}, {"state": "Connecticut", "city": "Grand Forks", "address": "517 Upper Ranch", "zipcode": "69123", "bedrooms": "1", "bathroom": "No", "wifi": "Yes", "kitchen": "Yes"}, {"state": "Montana", "city": "Hempstead", "address": "1021 Mangels Lodge", "zipcode": "45681", "bedrooms": "3", "bathroom": "No", "wifi": "No", "kitchen": "Yes"}, {"state": "California", "city": "Harker Heights", "address": "163 Thorp Place", "zipcode": "84962", "bedrooms": "3", "bathroom": "No", "wifi": "Yes", "kitchen": "No"}, {"state": "Indiana", "city": "Winston-Salem", "address": "1270 Saint Elmo Trail", "zipcode": "86839", "bedrooms": "1", "bathroom": "Yes", "wifi": "Yes", "kitchen": "Yes"}, {"state": "Arkansas", "city": "Morristown", "address": "578 Bayview Viaduct", "zipcode": "11058", "bedrooms": "2", "bathroom": "No", "wifi": "No", "kitchen": "Yes"}, {"state": "Arkansas", "city": "Central Falls", "address": "886 Harper Mews", "zipcode": "33914", "bedrooms": "2", "bathroom": "Yes", "wifi": "No", "kitchen": "Yes"}, {"state": "Wisconsin", "city": "West Sacramento", "address": "169 South Hill Run", "zipcode": "63156", "bedrooms": "3", "bathroom": "No", "wifi": "Yes", "kitchen": "No"}, {"state": "Indiana", "city": "Lomita", "address": "331 Bancroft Annex", "zipcode": "84649", "bedrooms": "4", "bathroom": "No", "wifi": "No", "kitchen": "No"}, {"state": "Indiana", "city": "Cleveland", "address": "520 Jasper Place", "zipcode": "55237", "bedrooms": "2", "bathroom": "Yes", "wifi": "No", "kitchen": "Yes"}, {"state": "California", "city": "El Cajon", "address": "1299 Myrtle Estate", "zipcode": "44871", "bedrooms": "4", "bathroom": "Yes", "wifi": "No", "kitchen": "No"}, {"state": "Rhode Island", "city": "West New York", "address": "1010 Leavenworth Bypass", "zipcode": "27644", "bedrooms": "4", "bathroom": "No", "wifi": "Yes", "kitchen": "No"}, {"state": "Indiana", "city": "East Palo Alto", "address": "430 Treat Gardens", "zipcode": "14725", "bedrooms": "3", "bathroom": "No", "wifi": "No", "kitchen": "Yes"}, {"state": "Colorado", "city": "Fairfield", "address": "815 Sunset Crescent", "zipcode": "78440", "bedrooms": "1", "bathroom": "Yes", "wifi": "No", "kitchen": "Yes"}, {"state": "Mississippi", "city": "Evans", "address": "597 Le Conte Arcade", "zipcode": "78048", "bedrooms": "2", "bathroom": "No", "wifi": "Yes", "kitchen": "Yes"}, {"state": "Arkansas", "city": "Rowlett", "address": "524 Karen Highway", "zipcode": "83895", "bedrooms": "4", "bathroom": "No", "wifi": "Yes", "kitchen": "Yes"}, {"state": "Florida", "city": "Rancho Cordova", "address": "1074 Winn Gardens", "zipcode": "01341", "bedrooms": "4", "bathroom": "No", "wifi": "No", "kitchen": "Yes"}, {"state": "Delaware", "city": "Marina", "address": "810 Hastings Freeway", "zipcode": "79244", "bedrooms": "2", "bathroom": "No", "wifi": "Yes", "kitchen": "No"}, {"state": "Oregon", "city": "Sarasota", "address": "1316 Ocean Vista Street", "zipcode": "63912", "bedrooms": "2", "bathroom": "No", "wifi": "No", "kitchen": "Yes"}, {"state": "Alaska", "city": "Acworth", "address": "1145 Easement Run", "zipcode": "23282", "bedrooms": "3", "bathroom": "No", "wifi": "No", "kitchen": "No"}, {"state": "Nevada", "city": "Shelton", "address": "1393 Treat Highway", "zipcode": "55435", "bedrooms": "1", "bathroom": "No", "wifi": "No", "kitchen": "No"}, {"state": "Montana", "city": "University City", "address": "112 Clay Point", "zipcode": "35068", "bedrooms": "2", "bathroom": "No", "wifi": "No", "kitchen": "Yes"}, {"state": "Nevada", "city": "Clemmons", "address": "1225 Harrison Gardens", "zipcode": "52510", "bedrooms": "3", "bathroom": "No", "wifi": "Yes", "kitchen": "Yes"}, {"state": "Georgia", "city": "Conroe", "address": "93 Darien Motorway", "zipcode": "49106", "bedrooms": "2", "bathroom": "Yes", "wifi": "Yes", "kitchen": "No"}, {"state": "Louisiana", "city": "Paradise", "address": "1361 Panorama Turnpike", "zipcode": "29265", "bedrooms": "3", "bathroom": "No", "wifi": "Yes", "kitchen": "Yes"}, {"state": "Arkansas", "city": "Deltona", "address": "429 Everson Pike", "zipcode": "34038", "bedrooms": "1", "bathroom": "No", "wifi": "Yes", "kitchen": "No"}, {"state": "Minnesota", "city": "Americus", "address": "1040 Arleta Green", "zipcode": "55600", "bedrooms": "4", "bathroom": "Yes", "wifi": "No", "kitchen": "No"}, {"state": "Arkansas", "city": "Pocatello", "address": "700 Willow Canyon", "zipcode": "60387", "bedrooms": "2", "bathroom": "No", "wifi": "No", "kitchen": "No"}, {"state": "Mississippi", "city": "Franklin", "address": "193 Arbor Loop", "zipcode": "52194", "bedrooms": "2", "bathroom": "No", "wifi": "Yes", "kitchen": "No"}, {"state": "Washington", "city": "Southgate", "address": "507 Antonio Mall", "zipcode": "83549", "bedrooms": "3", "bathroom": "Yes", "wifi": "No", "kitchen": "No"}, {"state": "Minnesota", "city": "Tustin", "address": "330 Battery Cranston Route", "zipcode": "15853", "bedrooms": "3", "bathroom": "Yes", "wifi": "No", "kitchen": "Yes"}, {"state": "Maine", "city": "Milford", "address": "639 Clara Boulevard", "zipcode": "61522", "bedrooms": "2", "bathroom": "Yes", "wifi": "No", "kitchen": "Yes"}, {"state": "Georgia", "city": "Douglas", "address": "105 Silver Grove", "zipcode": "74814", "bedrooms": "3", "bathroom": "No", "wifi": "No", "kitchen": "Yes"}, {"state": "New Jersey", "city": "Addison", "address": "1367 Redwood Pass", "zipcode": "35707", "bedrooms": "1", "bathroom": "No", "wifi": "No", "kitchen": "Yes"}, {"state": "Montana", "city": "Lawton", "address": "309 Fort Funston Parkway", "zipcode": "48048", "bedrooms": "1", "bathroom": "No", "wifi": "No", "kitchen": "Yes"}, {"state": "Vermont", "city": "Morgan Hill", "address": "1382 Tulip Bayou", "zipcode": "09015", "bedrooms": "2", "bathroom": "No", "wifi": "No", "kitchen": "No"}, {"state": "Hawaii", "city": "Saco", "address": "908 South Shore", "zipcode": "18127", "bedrooms": "3", "bathroom": "Yes", "wifi": "No", "kitchen": "No"}, {"state": "Utah", "city": "Fort Collins", "address": "1330 Alpine Mews", "zipcode": "60367", "bedrooms": "3", "bathroom": "Yes", "wifi": "Yes", "kitchen": "No"}, {"state": "West Virginia", "city": "Madison Heights", "address": "1393 Sequoia Road", "zipcode": "45364", "bedrooms": "2", "bathroom": "Yes", "wifi": "Yes", "kitchen": "Yes"}, {"state": "Washington", "city": "Hollister", "address": "1088 Michigan Glen", "zipcode": "31819", "bedrooms": "2", "bathroom": "No", "wifi": "Yes", "kitchen": "No"}, {"state": "Vermont", "city": "Millville", "address": "401 Dow Crossing", "zipcode": "14447", "bedrooms": "1", "bathroom": "No", "wifi": "Yes", "kitchen": "Yes"}, {"state": "Arkansas", "city": "New Castle", "address": "179 Balmy Lake", "zipcode": "33197", "bedrooms": "4", "bathroom": "No", "wifi": "No", "kitchen": "Yes"}, {"state": "Pennsylvania", "city": "Bloomingdale", "address": "1322 Imperial Bend", "zipcode": "51151", "bedrooms": "4", "bathroom": "No", "wifi": "Yes", "kitchen": "No"}, {"state": "Virginia", "city": "Lake Forest", "address": "612 North Point Row", "zipcode": "26500", "bedrooms": "3", "bathroom": "Yes", "wifi": "No", "kitchen": "Yes"}, {"state": "Arkansas", "city": "Beaverton", "address": "1316 Battery Pine", "zipcode": "96308", "bedrooms": "4", "bathroom": "Yes", "wifi": "No", "kitchen": "No"}, {"state": "Maine", "city": "Mansfield", "address": "433 Zanowitz Point", "zipcode": "59427", "bedrooms": "3", "bathroom": "No", "wifi": "Yes", "kitchen": "Yes"}, {"state": "Idaho", "city": "Federal Way", "address": "968 Shipley Route", "zipcode": "26993", "bedrooms": "2", "bathroom": "Yes", "wifi": "Yes", "kitchen": "Yes"}, {"state": "Nebraska", "city": "San Carlos", "address": "1244 Derby Crescent", "zipcode": "57649", "bedrooms": "2", "bathroom": "Yes", "wifi": "No", "kitchen": "No"}, {"state": "Nebraska", "city": "La Habra", "address": "1059 Coronado Arcade", "zipcode": "95327", "bedrooms": "1", "bathroom": "No", "wifi": "Yes", "kitchen": "No"}, {"state": "Michigan", "city": "Fayetteville", "address": "392 Boalt Heights", "zipcode": "35117", "bedrooms": "4", "bathroom": "No", "wifi": "Yes", "kitchen": "Yes"}, {"state": "Montana", "city": "Delaware", "address": "22 Reuel Canyon", "zipcode": "73588", "bedrooms": "1", "bathroom": "No", "wifi": "No", "kitchen": "No"}, {"state": "Ohio", "city": "Delano", "address": "299 Fresnel Mews", "zipcode": "97298", "bedrooms": "2", "bathroom": "Yes", "wifi": "Yes", "kitchen": "Yes"}, {"state": "Illinois", "city": "Gary", "address": "175 Sturgeon Garden", "zipcode": "34081", "bedrooms": "3", "bathroom": "Yes", "wifi": "No", "kitchen": "No"}, {"state": "California", "city": "South St. Paul", "address": "664 Bryn Mahr Ferry", "zipcode": "67187", "bedrooms": "2", "bathroom": "Yes", "wifi": "Yes", "kitchen": "Yes"}, {"state": "Alabama", "city": "Ramsey", "address": "1374 Stoneyford Bridge", "zipcode": "35430", "bedrooms": "1", "bathroom": "Yes", "wifi": "Yes", "kitchen": "No"}, {"state": "Hawaii", "city": "Hoboken", "address": "169 Waldo Canyon", "zipcode": "41130", "bedrooms": "1", "bathroom": "No", "wifi": "No", "kitchen": "No"}, {"state": "Illinois", "city": "Elkhart", "address": "1096 Nelson Canyon", "zipcode": "16965", "bedrooms": "3", "bathroom": "No", "wifi": "Yes", "kitchen": "Yes"}, {"state": "Oregon", "city": "Ashtabula", "address": "1388 Delta Street", "zipcode": "34606", "bedrooms": "4", "bathroom": "No", "wifi": "Yes", "kitchen": "No"}, {"state": "North Dakota", "city": "Simpsonville", "address": "844 Antonio Crossing", "zipcode": "52266", "bedrooms": "1", "bathroom": "Yes", "wifi": "Yes", "kitchen": "No"}, {"state": "North Dakota", "city": "York", "address": "1060 Graystone Cove", "zipcode": "38049", "bedrooms": "3", "bathroom": "No", "wifi": "Yes", "kitchen": "Yes"}, {"state": "Connecticut", "city": "Petersburg", "address": "1197 Utah Plaza", "zipcode": "74520", "bedrooms": "2", "bathroom": "No", "wifi": "No", "kitchen": "Yes"}, {"state": "Maryland", "city": "Kingsport", "address": "938 Cameo Path", "zipcode": "03187", "bedrooms": "4", "bathroom": "Yes", "wifi": "Yes", "kitchen": "Yes"}, {"state": "Texas", "city": "Arlington", "address": "1314 Williar Expressway", "zipcode": "25855", "bedrooms": "1", "bathroom": "Yes", "wifi": "No", "kitchen": "Yes"}, {"state": "Pennsylvania", "city": "Denton", "address": "1346 Capistrano Row", "zipcode": "64619", "bedrooms": "4", "bathroom": "No", "wifi": "No", "kitchen": "Yes"}, {"state": "New Jersey", "city": "Fort Pierce", "address": "554 Page Pine", "zipcode": "70109", "bedrooms": "3", "bathroom": "No", "wifi": "Yes", "kitchen": "No"}, {"state": "Nebraska", "city": "Winter Springs", "address": "451 Melrose Canyon", "zipcode": "83745", "bedrooms": "3", "bathroom": "Yes", "wifi": "No", "kitchen": "Yes"}, {"state": "Alaska", "city": "Newport News", "address": "1315 Royal Mall", "zipcode": "91181", "bedrooms": "1", "bathroom": "No", "wifi": "Yes", "kitchen": "Yes"}, {"state": "Indiana", "city": "Port Orange", "address": "174 Bradford Green", "zipcode": "02967", "bedrooms": "4", "bathroom": "Yes", "wifi": "No", "kitchen": "Yes"}, {"state": "North Carolina", "city": "Clemmons", "address": "399 Orsi Pine", "zipcode": "42358", "bedrooms": "3", "bathroom": "No", "wifi": "No", "kitchen": "Yes"}, {"state": "Tennessee", "city": "Bullhead City", "address": "742 South Van Horn Grove", "zipcode": "00765", "bedrooms": "1", "bathroom": "No", "wifi": "Yes", "kitchen": "No"}, {"state": "Kansas", "city": "Kissimmee", "address": "636 Oak Hill", "zipcode": "63661", "bedrooms": "2", "bathroom": "Yes", "wifi": "No", "kitchen": "No"}, {"state": "Hawaii", "city": "Chapel Hill", "address": "487 Eighth Loop", "zipcode": "78429", "bedrooms": "2", "bathroom": "No", "wifi": "Yes", "kitchen": "No"}, {"state": "Nebraska", "city": "Allen", "address": "921 Heyman Lodge", "zipcode": "37581", "bedrooms": "1", "bathroom": "Yes", "wifi": "No", "kitchen": "Yes"}, {"state": "Arkansas", "city": "Pasadena", "address": "445 Craig Run", "zipcode": "42160", "bedrooms": "2", "bathroom": "No", "wifi": "Yes", "kitchen": "Yes"}, {"state": "Hawaii", "city": "Chillicothe", "address": "391 Horace Place", "zipcode": "23011", "bedrooms": "4", "bathroom": "Yes", "wifi": "No", "kitchen": "No"}, {"state": "Washington", "city": "West Palm Beach", "address": "482 Morrell Avenue", "zipcode": "67374", "bedrooms": "4", "bathroom": "No", "wifi": "Yes", "kitchen": "No"}, {"state": "North Dakota", "city": "Dickinson", "address": "721 Zircon Point", "zipcode": "86281", "bedrooms": "4", "bathroom": "Yes", "wifi": "Yes", "kitchen": "Yes"}, {"state": "Louisiana", "city": "Apache Junction", "address": "41 Winter Cove", "zipcode": "72224", "bedrooms": "3", "bathroom": "No", "wifi": "Yes", "kitchen": "No"}, {"state": "Arkansas", "city": "Chanhassen", "address": "1086 Garnett Square", "zipcode": "44889", "bedrooms": "1", "bathroom": "Yes", "wifi": "Yes", "kitchen": "Yes"}, {"state": "Indiana", "city": "Gallatin", "address": "954 Houston Junction", "zipcode": "63066", "bedrooms": "4", "bathroom": "No", "wifi": "Yes", "kitchen": "No"}, {"state": "Texas", "city": "Midwest City", "address": "734 Dukes Parkway", "zipcode": "67098", "bedrooms": "3", "bathroom": "Yes", "wifi": "No", "kitchen": "No"}, {"state": "West Virginia", "city": "South Salt Lake", "address": "334 Sunset Run", "zipcode": "48817", "bedrooms": "1", "bathroom": "Yes", "wifi": "Yes", "kitchen": "Yes"}, {"state": "North Dakota", "city": "Concord", "address": "463 Homewood Gardens", "zipcode": "65027", "bedrooms": "2", "bathroom": "No", "wifi": "Yes", "kitchen": "Yes"}, {"state": "Arkansas", "city": "Winter Springs", "address": "1293 Vallejo Avenue", "zipcode": "50457", "bedrooms": "4", "bathroom": "Yes", "wifi": "Yes", "kitchen": "No"}, {"state": "Wisconsin", "city": "East Point", "address": "33 Macarthur Mews", "zipcode": "04345", "bedrooms": "2", "bathroom": "Yes", "wifi": "No", "kitchen": "No"}, {"state": "Nebraska", "city": "Monrovia", "address": "234 Telegraph Station", "zipcode": "08051", "bedrooms": "1", "bathroom": "No", "wifi": "No", "kitchen": "No"}, {"state": "Arkansas", "city": "Mesa", "address": "596 Egbert Grove", "zipcode": "63986", "bedrooms": "4", "bathroom": "Yes", "wifi": "No", "kitchen": "Yes"}, {"state": "Minnesota", "city": "Enterprise", "address": "238 Gough Lake", "zipcode": "07354", "bedrooms": "1", "bathroom": "No", "wifi": "No", "kitchen": "No"}, {"state": "New Mexico", "city": "Champaign", "address": "683 Stanton Plaza", "zipcode": "10184", "bedrooms": "4", "bathroom": "Yes", "wifi": "Yes", "kitchen": "No"}, {"state": "Pennsylvania", "city": "Savage", "address": "1012 Quane Crossing", "zipcode": "87815", "bedrooms": "1", "bathroom": "Yes", "wifi": "Yes", "kitchen": "No"}, {"state": "New York", "city": "Clarksburg", "address": "547 Napoleon Glen", "zipcode": "69522", "bedrooms": "4", "bathroom": "No", "wifi": "Yes", "kitchen": "Yes"}, {"state": "Connecticut", "city": "Linden", "address": "953 Mizpah Court", "zipcode": "79258", "bedrooms": "3", "bathroom": "Yes", "wifi": "Yes", "kitchen": "Yes"}, {"state": "North Carolina", "city": "Seminole", "address": "1399 Sterling Pass", "zipcode": "70628", "bedrooms": "2", "bathroom": "No", "wifi": "Yes", "kitchen": "Yes"}, {"state": "South Carolina", "city": "Pharr", "address": "380 Bellevue Pike", "zipcode": "05837", "bedrooms": "2", "bathroom": "Yes", "wifi": "No", "kitchen": "Yes"}, {"state": "Alaska", "city": "Margate", "address": "617 Peru Garden", "zipcode": "35105", "bedrooms": "1", "bathroom": "Yes", "wifi": "No", "kitchen": "No"}, {"state": "Arizona", "city": "North Ridgeville", "address": "727 Geneva Pike", "zipcode": "90766", "bedrooms": "3", "bathroom": "No", "wifi": "No", "kitchen": "Yes"}, {"state": "Kansas", "city": "Terrell", "address": "1365 Pennsylvania Crescent", "zipcode": "31507", "bedrooms": "4", "bathroom": "Yes", "wifi": "Yes", "kitchen": "No"}]